X,Y,id,WaterBody,Town,County,Owner,Manager,AccessType,BoatSize,RampType,UniversalAccess,BulletinBoard,Exposure,Parking,Shorefishing,UseVolume,Dock,WinterPlowing,SummerPortolet,WinterPortolet,TempPortolet,AccessName,Bowfin,Carp,ChannelCatfish,WhiteCrappie,LongnoseGar,Muskellunge,WhitePerch,AmericanShad,Sheepshead,LakeWhitefish,BrookTrout,BrownTrout,RainbowTrout,LakeTrout,LandlockedSalmon,RainbowSmelt,YellowPerch,Walleye,NorthernPike,ChainPickerel,LargemouthBass,SmallmouthBass,Bullhead,Panfish,BlackCrappie,Burbot,Directions,CoordX,CoordY,LakeArea,MaximumDepth,ESRI_OID
-72.1515,44.8797,1,Brownington Pond,Brownington,Orleans,F&W,F&W,Boating/Fishing,Medium,Concrete Plank,No,No,Protected,Medium,All Year,Light,No,No,No,No,No,Brownington Pond,No,No,No,No,No,No,No,No,No,No,No,No,No,No,No,No,Yes,No,No,Yes,No,Yes,Yes,Yes,No,No,"Take Interstate 91 to Exit 27 in Derby.   Turn East onto Cross Rd (VT Route 191).  Follow VT 191 East for 1.2 miles to Hinman Settler Rd.  Turn RIGHT onto Hinman Settler Rd, proceeding South for 2.2 miles.  After passing Bushey Hill Rd on the left travel another 0.2 miles south, and the access drive will be on your left.",-72.15148988,44.87974814,136,33,1
-73.1824,43.7684,2,Burr Pond,Sudbury,Rutland,F&W,F&W,Boating/Fishing,Small,Gravel,No,Yes,South,Small,All Year,Light,No,Yes,No,No,No,Burr Pond,No,No,No,No,No,No,No,No,No,No,No,No,No,No,No,No,Yes,No,Yes,No,Yes,No,Yes,Yes,Yes,No,"Take US Route 7 into Brandon where US Route 7 becomes Grove Street.  From Grove Street go West onto Champlain Street/VT Route 73.  Travel West on VT Route 73 for approximately 5 miles, then take a left onto VT Route 30/Route 73 South.  Travel South on VT Route 30 for 4.4 miles, then turn  LEFT onto East Burr Pond Rd and continue for 0.9 miles to the Access Area on the RIGHT.",-73.18239075,43.76844728,74,18,2
-72.1857,44.7224,3,Barton River,Glover,Orleans,F&W,F&W,Fishing,N/A,None,No,Yes,Protected,Small,Spring-Summer,Light,No,No,No,No,No,Barton River,No,No,No,No,No,No,No,No,No,No,Yes,Yes,Yes,No,No,No,No,No,No,No,No,No,No,No,No,No,Take Interstate 91 to Exit 25 in Barton.  Turn south onto VT Route 16 for approximately 1 mile.  The Access Area will be on the RIGHT.,-72.185675,44.722352,0,0,3
-72.3925,43.8163,4,C.C.C. Pond,Sharon,Windsor,FPR,F&W,Boating/Fishing,Small,Gravel,No,Yes,Protected,Small,Spring-Summer,Light,No,No,No,No,No,C.C.C. Pond,No,No,No,No,No,No,No,No,No,No,No,No,No,No,No,No,No,No,No,No,Yes,No,Yes,Yes,No,No,Take Interstate 89 to Exit 2 in Sharon.  Head East on VT Route 132 for 2 miles until the intersection with Beaver Meadow Road.  Turn RIGHT on Beaver Meadow Rd and head East for 0.30 miles until the intersection with Downer Rd.  Turn LEFT onto Downer Rd and travel North for 2.0 miles to the Access Area on the LEFT.,-72.392464,43.816271,8,,4
-71.9225,44.7145,5,Center Pond,Newark,Caledonia,F&W,F&W,Boating/Fishing,Small,Gravel,No,Yes,Protected,Small,Spring-Summer,Light,No,No,No,No,No,Center Pond,No,No,No,No,No,No,No,No,No,No,Yes,No,No,Yes,No,No,No,No,No,No,No,No,No,No,No,No,"Take Interstate 91 to Exit 23 in Lyndonville.  Follow US Route 5 (Broad St) North for 1.5 miles.  Turn RIGHT onto Main St. and continue travelling as it turns into LynBurke Rd.  Drive another 5.2 miles to Bugbee Crossing Rd and turn RIGHT.  Drive for 1.9 miles, then turn RIGHT onto Burke Hollow Road., followed by an immediate LEFT onto Sugarhouse Rd, the immediately bear RIGHT onto East Brook Rd. Continue northeast on East Brook Road for 3.8 miles, then turn LEFT onto Maple Ridge Rd. Go 2 miles on Maple Ridge rd, bearing right onto Center Pond Rd and continue 1.2 North to the access drive on the Right.",-71.92250694,44.71446347,80,72,5
-73.1812,44.9702,6,Charcoal Creek,Swanton,Franklin,F&W,F&W,Fishing,N/A,None,No,Yes,Protected,Small,Spring-Summer,Light,No,No,No,No,No,Charcoal Creek,Yes,Yes,Yes,No,Yes,No,Yes,No,No,No,No,No,No,No,No,No,Yes,No,Yes,Yes,Yes,No,Yes,Yes,Yes,No,Take Interstate 89 to Exit 21 and head West on Vermont Route 78 (1st Street) for 0.9 miles to US Route 7.  Turn RIGHT onto US Route 7/ VT Route 78 for 0.1 miles.  Bear left onto State Route 78 (Depot St) crossing the Missisquoi River and continuing of VT Route 78 for 4.5 miles.  Turn right onto Campbell Bay Rd to the Access Area on the RIGHT.,-73.18121983,44.97017581,0,0,6
-72.9211,43.7232,7,Chittenden Reservoir,Chittenden,Rutland,Lease,F&W,Boating/Fishing,Medium,Gravel,No,Yes,North,Medium,All Year,Heavy,No,Yes,Yes,Yes,No,Chittenden Reservoir,No,No,No,No,No,No,No,No,No,No,No,No,No,No,No,No,Yes,Yes,No,No,Yes,No,Yes,Yes,No,No,From Rutland take US Route 4 East (Woodstock Ave.) and travel for 3.7 miles to Meadow Lake Drive.  Turn LEFT on Meadow Lake Drive and travel 1.7 miles to Chittenden Rd.  Turn RIGHT onto Chittenden Road and proceed 2.7 miles.  At the fork veer right onto Dam Rd.  Travel North on Dam Rd for 2 miles to the Chittenden Dam Access Rd.  The Access Area will be on the LEFT at the end of the Access Rd.,-72.92105913,43.72322809,702,46,7
-72.2023,44.6461,8,Clark's Pond,Glover,Orleans,F&W,F&W,Boating/Fishing,Small,Gravel,No,No,Protected,Medium,All Year,Light,No,No,No,No,No,Clark's Pond,No,No,No,No,No,No,No,No,No,No,No,No,No,No,No,No,Yes,No,No,Yes,No,No,Yes,Yes,No,No,"Take Interstate 91 to exit 25 in Barton.  Turn south onto VT Route 16, and travel for 6.5 miles.  The Access Area will be on the right.",-72.20233161,44.64608317,33,24,8
-71.9149,44.8017,9,Clyde River,Brighton,Essex,F&W,F&W,Boating/Fishing,Carry-on,None,No,Yes,Protected,Small,Spring,Light,No,No,No,No,No,Clyde River (Brighton),No,No,No,No,No,No,No,No,No,No,Yes,Yes,No,No,No,No,No,No,No,Yes,No,No,No,No,No,No,"Take Interstate 91 to Exit 28 for Derby.  Take US Route 5 North for 0.5 miles, then turn RIGHT onto VT Route 105/VT Route 5A.  Follow VT Route 105 for 16.7 miles, then turn LEFT onto Five Mile Square Rd.  The Access Area will be on the LEFT, just after the road crosses the Clyde River.",-71.91492586,44.80169872,0,0,9
-71.9739,44.8276,10,Clyde River,Charleston,Orleans,F&W,F&W,Boating/Fishing,Small,Gravel,No,No,Protected,Small,Spring,Light,No,No,No,No,No,Clyde River (Charleston),No,No,No,No,No,No,No,No,No,No,Yes,Yes,Yes,No,Yes,No,Yes,No,No,Yes,No,No,No,Yes,No,No,Take Interstate 91 to Exit 28 in Derby.  Turn North onto US Route 5 and continue for approximately 1 mile to the intersection of VT Route 105.  Turn RIGHT onto VT Route 105 and continue for 12 miles to the village of East Charleston.  Continue for approximately 1 mile and then turn LEFT onto 10 Mile Square Rd.  The Access Area will be on your immediate RIGHT after turning onto 10 Mile Square Rd.,-71.97394147,44.82762296,0,0,10
-72.3253,44.4439,11,Coits Pond,Cabot,Washington,F&W,F&W,Boating/Fishing,Carry-on,None,No,Yes,Northwest,Small,Spring,Light,No,No,No,No,No,Coits Pond,No,No,No,No,No,No,No,No,No,No,No,No,No,No,No,No,Yes,No,No,Yes,Yes,No,Yes,No,No,No,"Take Interstate 89 to Exit 8 and follow US Route 2 East approximately 18 miles towards Marshfield.  Veer LEFT onto State Route 215 (a.k.a. Cabot Rd) heading Northeast for 3.2 miles to Hill Pond Rd.  Turn LEFT on Hill Pond Rd and continue for 1.8 miles to Coits Pond Rd.  Continue across the intersection, bearing slightly right and Northeast onto Coits Pond Rd.  Travel for approximately 2.6 miles, past West Hill Pond, to the Coits Pond Access on the LEFT side of the road.",-72.32529255,44.44387195,40,7,11
-72.6652,43.4736,12,Colby Pond,Plymouth,Windsor,F&W,F&W,Boating/Fishing,Small,Gravel,No,Yes,Protected,Small,Trout Season Only,Light,No,No,No,No,No,Colby Pond,No,No,No,No,No,No,No,No,No,No,Yes,Yes,No,No,No,No,No,No,No,No,No,No,No,No,No,No,"Take US Route 4 to West Bridgewater, then turn South onto VT Route 100.  Travel for approximately 10.5 miles, then turn LEFT onto Kingdom Rd and head West.  Continue on Kingdom Rd for approximately 2.3 miles and the Access Area will be on your RIGHT.",-72.66521033,43.47360889,20,13,12
-72.8158,43.6967,14,Colton Pond,Killington,Rutland,F&W,F&W,Boating/Fishing,Small,Concrete Plank,No,Yes,Protected,Medium,Spring/summer,Light,No,No,Yes,No,No,Colton Pond,No,No,No,No,No,No,No,No,No,No,Yes,No,No,No,No,No,Yes,No,No,No,Yes,No,Yes,No,No,No,"Take US Route 4, either East from Rutland or West from Woodstock, to Killington, then turn onto VT Route 100 North.  Travel North on VT Route 100 for 2.1 miles, then turn LEFT onto Colton Pond Access Rd and follow to the Access Area.",-72.81581009,43.69667405,,,13
-73.2914,44.295,15,Lake Champlain,Charlotte,Chittenden,F&W,F&W,Boating/Fishing,Medium,Concrete,No,Yes,Protected,Large,All Year,Moderate,Yes,Yes,Yes,No,No,Converse Bay,No,No,No,No,No,No,Yes,No,No,No,No,Yes,No,Yes,Yes,Yes,Yes,Yes,Yes,No,No,Yes,Yes,Yes,Yes,No,"Take US Route 7 to Charlotte, then turn West onto Ferry Rd (VT-F5).  Travel West on Ferry Rd for 1.4 miles, then turn LEFT onto Lake Rd.  Travel South on Lake Rd for 0.9 miles, then turn RIGHT onto Converse Bay Rd.  Travel West on Converse Bay Rd for 0.7 miles, then turn LEFT onto Cedar Beach Rd.  Travel for 0.2 miles and the Access Area will be on the LEFT.",-73.29135619,44.29497944,172800,400,14
-72.1459,44.7193,16,Crystal Lake,Barton,Orleans,F&W,F&W,Boating/Fishing,Large,Concrete,Yes,Yes,Protected,Small,All Year,Moderate,Yes,Yes,Yes,Yes,No,Crystal Lake,No,No,No,No,No,No,No,No,No,No,No,No,Yes,Yes,No,No,Yes,No,No,Yes,No,Yes,Yes,Yes,No,No,"Take Interstate 91 to Exit 25 in Barton.  Turn onto VT Route 16 North and travel to the center of the village.  Turn RIGHT onto US Route 5 South (Lake Street).  Continue South on US Route 5 South for 2.5 miles, driving alongside Crystal Lake.  The Access Area will be seen on the LEFT at the South end of the lake.",-72.14585427,44.71934,778,115,15
-72.5007,44.3765,17,Curtis Pond,Calais,Washington,F&W,F&W,Boating/Fishing,Small,Gravel,No,Yes,Protected,Small,All Year,Moderate,No,Yes,No,No,No,Curtis Pond,No,No,No,No,No,No,No,No,No,No,No,No,No,No,No,No,Yes,No,No,Yes,Yes,No,Yes,Yes,No,No,From Interstate 89 take Exit 8 in Montpelier onto US Route 2 East.  Travel for 7.8 miles to East Montpelier.  In East Montpelier veer LEFT onto VT Route 14 North and travel for 5.5 miles to Pekin Brook Rd.  Turn LEFT onto Pekin Brook Rd and travel West for 3 miles to Kent Hill Rd.  Turn LEFT onto Kent Hill Rd and travel West for 2 miles to Maple Corners.  At Maple Corners continue straight through the intersection onto Worcester Rd.  Drive for .25 miles and the Access Area will be on the RIGHT.,-72.50066255,44.37654024,76,31,16
-72.2572,44.6742,18,Daniels Pond,Glover,Orleans,F&W,F&W,Boating/Fishing,Small,Gravel,No,Yes,Protected,Small,All Year,Light,No,No,No,No,No,Daniels Pond,No,No,No,No,No,No,No,No,No,No,No,No,No,No,No,No,Yes,No,No,Yes,No,No,Yes,Yes,No,No,"Take Interstate 91 to Exit 25 in Barton.  Take VT Route 16 South for 2 miles to the village of Glover.  Continue on VT Route 16 South for approximately 3.3 miles, then turn RIGHT onto Shadow Lake Rd.  Continue driving on Shadow Lake Road for 3.4 miles. Veer right onto Daniels Pond Rd and travel for 0.2 mile to the Access Area on the RIGHT.",-72.25718154,44.67423351,61,13,17
-73.3453,44.085,19,Dead Creek,Addison,Addison,F&W,F&W,Boating/Fishing,Medium,Gravel,No,Yes,Protected,Large,Spring,Light,No,No,No,No,No,Dead Creek,No,No,No,No,No,No,No,No,No,No,No,No,No,No,No,No,Yes,No,Yes,No,Yes,Yes,Yes,Yes,No,No,"Take US Route 7 to New Haven Junction, then turn onto VT Route 17 West.  Travel West for 9.5 miles and the Access Area will be on the RIGHT, just before the bridge crossing Dead Creek.",-73.345261,44.084982,0,0,18
-72.1222,44.9587,20,Derby Pond,Derby,Orleans,F&W,F&W,Boating/Fishing,Medium,Concrete Plank,No,Yes,South,Medium,All Year,Light,No,No,No,No,No,Derby Pond,No,No,No,No,No,No,No,No,No,No,No,No,No,No,No,No,Yes,No,No,Yes,Yes,Yes,Yes,Yes,No,No,"Take Interstate 91 to Exit 28 in Derby.  Turn onto US Route 5 North, travel for 1.5 miles, then turn RIGHT onto Nelson Hill Rd.  Travel East on Nelson Hill Rd for 0.2 miles and the Access Area will be on the RIGHT.",-72.12222325,44.95867827,206,19,19
-73.276,44.9163,21,Lake Champlain,Alburg,Grand Isle,F&W,F&W,Boating/Fishing,Small,Gravel,No,Yes,Northeast,Large,All Year,Moderate,Yes,Yes,Yes,No,No,Dillenbeck Bay,Yes,Yes,Yes,No,No,No,Yes,No,Yes,No,No,No,No,No,No,No,Yes,Yes,Yes,Yes,Yes,Yes,Yes,Yes,Yes,No,"Take Interstate 89 to Exit 17 and turn onto US Route 2 West, towards the Lake Champlain Islands.  Travel West for 29.4 miles.  The Access Area is on the RIGHT, soon after you pass through the village of South Alburg.",-73.27599241,44.91631973,172800,400,20
-72.8298,44.6498,22,Lamoille River,Cambridge,Lamoille,F&W,F&W,Boating/Fishing,Carry-on,None,No,No,Protected,Small,Spring-Summer,Light,No,No,No,No,No,Dorothy Smith,No,No,No,No,No,No,No,No,No,No,No,Yes,Yes,No,No,No,No,No,No,No,No,No,No,No,No,No,"From Interstate 89 take Exit 10 for Waterbury/Stowe and head North on VT Route 100 towards Stowe.  Travel North on VT Route 100 for 21.5 miles to the town of Hyde Park.  From Hyde Park follow VT Route 15 West for 13.7 miles to the town of Jeffersonville.  In Jeffersonville turn RIGHT onto VT Route 108 North.  Cross the Iron bridge that spans the Lamoille River, and the Access Area will be just after the bridge on the RIGHT.",-72.82980907,44.64982135,0,0,21
-73.0302,43.1791,23,Dufresne Pond,Manchester,Bennington,F&W,F&W,Boating/Fishing,Carry-on,None,No,Yes,Protected,Small,Trout Season Only,Light,No,No,Yes,No,No,Dufresne Dam,No,No,No,No,No,No,No,No,No,No,Yes,Yes,No,No,No,No,No,No,No,No,No,No,No,No,No,No,"Take US Route 7 to Manchester, then take Exit 4 onto VT Route 11 West.  Travel West for 0.25 miles, then turn RIGHT onto Dufresne Pond Rd.  Travel North on Dufresne Pond Rd for another 0.25 miles and the Access Area will be on the LEFT.",-73.03018952,43.17912011,20,,22
-73.0241,43.1817,24,Dufresne Pond,Manchester,Bennington,F&W,F&W,Fishing,Carry-on,None,No,No,Protected,Small,Trout Season Only,Light,No,No,No,No,No,Dufresne Pond,No,No,No,No,No,No,No,No,No,No,Yes,Yes,No,No,No,No,No,No,No,No,No,No,No,No,No,No,"Take US Route 7 to Manchester, then take Exit 4 onto VT Route 11 West.  Travel West for 0.2 miles, then turn RIGHT onto Dufresne Pond Rd.  Travel North on Dufresne Pond Rd for 0.25 miles, then turn RIGHT onto Town Shed Rd.  Travel East on Town Shed Rd for 0.5 miles and the Access Area will be on the LEFT.",-73.024149,43.181734,20,,23
-71.9898,44.8513,25,Echo Lake,Charleston,Orleans,F&W,F&W,Boating/Fishing,Small,Gravel,No,Yes,North,Small,All Year,Light,No,Yes,Yes,Yes,No,Echo Lake Charleston,No,No,No,No,No,No,No,No,No,No,No,No,Yes,Yes,No,No,Yes,No,No,No,No,Yes,No,No,No,Yes,"Take Interstate 91 to Exit 28 in Derby.  Take US Route 5 East for approximately 1 mile, then turn RIGHT onto VT Route 105 South.  Travel South on VT Route 105 for 11 miles, then turn LEFT onto Church Hill Rd.  Travel North on Church Hill Rd for 1 mile, then turn LEFT onto West Echo Lake Rd.  Travel West on West Echo Lake Rd for 0.25 miles and the access area will be on the LEFT.",-71.98984804,44.8513014,544,129,24
-72.7029,43.4756,26,Echo Lake,Plymouth,Windsor,F&W,F&W,Boating/Fishing,Medium,Concrete Plank,No,Yes,Protected,Small,All Year,Moderate,No,Yes,Yes,No,No,Echo Lake Plymouth,No,No,No,No,No,No,No,No,No,No,No,No,Yes,Yes,No,Yes,Yes,No,No,Yes,Yes,Yes,No,Yes,No,No,"Take US Route 4 to West Bridgewater, the turn onto VT Route 100 South.  Travel South for 9 miles and the Access Area will be on the LEFT.",-72.70293628,43.4755594,96,91,25
-72.1679,44.3609,27,Ewell Pond,Peacham,Caledonia,F&W,F&W,Boating/Fishing,Small,Concrete Plank,No,Yes,Protected,Small,Spring-Summer,Light,No,No,Yes,Yes,No,Ewell Pond,No,No,No,No,No,No,No,No,No,No,No,No,Yes,No,No,No,Yes,No,No,No,No,No,No,No,No,No,"From Interstate 89 take Exit 8 for Montpelier and follow US Route 2 East for  27 miles towards the intersection with VT Route 15 located between East Cabot and Danville.  Just before the interstection turn RIGHT onto Keiser Pond Rd.  Head South on Keiser Pond Rd for 4 miles, then turn LEFT onto Taylor Rd.  Travel East on Taylor Rd for 0.25 mile and the Access Area will be on the RIGHT.",-72.167891,44.36089082,50,60,26
-72.9981,44.7882,29,Fairfield Swamp,Fairfield,Franklin,F&W,F&W,Boating/Fishing,Small,Gravel,No,No,Protected,Small,"Spring, Summer, Fall",,No,No,No,No,No,Fairfield Swamp,No,No,No,No,No,No,No,No,No,No,No,No,No,No,No,No,No,No,No,Yes,No,No,Yes,Yes,No,No,"From Interstate 89 take Exit 19 for VT Route 104/St. Albans.  Turn RIGHT onto VT Route 104 North/Fairfax Rd and continue for 0.5 miles, then turn RIGHT onto VT Route 36 East.  Travel East for 4 miles to the Access Area on the LEFT, just after the road crosses the creek.",-72.998092,44.78825,160,,27
-73.3159,44.2218,31,Lake Champlain,Ferrisburg,Addison,F&W,F&W,Boating/Fishing,Large,Concrete,No,Yes,Protected,Large,All Year,Moderate,No,Yes,No,No,Yes,Fort Cassin,Yes,Yes,No,No,No,Yes,Yes,No,Yes,No,No,Yes,No,Yes,Yes,No,Yes,Yes,Yes,Yes,Yes,Yes,Yes,Yes,Yes,No,"Take US Route 7 to Ferrisburgh, then turn onto Little Chicago Rd, heading West.  Travel for 4 miles, then turn RIGHT onto Sand Rd.  Travel North on Sand Rd for 0.5 miles, the turn LEFT onto Fort Cassin Rd.  Travel West on Fort Cassin Rd for 1 mile, and the Access Area will be on the RIGHT.",-73.31587332,44.22175316,172800,400,28
-72.2146,44.3294,32,Foster Pond,Peacham,Caledonia,F&W,F&W,Boating/Fishing,Small,Concrete Plank,No,Yes,Protected,Small,Spring,Light,No,No,Yes,Yes,No,Fosters Pond,No,No,No,No,No,No,No,No,No,No,No,No,No,No,No,No,No,No,No,Yes,No,No,Yes,No,No,No,"From Interstate 89 take Exit 8 in Montpelier onto US Route 2 East.  Travel East for 30.2 miles to Danville.  In Danville turn RIGHT onto Woodward Rd.  Travel South on Woodward Rd, which becomes Bayley Hazen Rd, for 7 miles, then turn RIGHT onto Church St followed by a quick RIGHT onto Macks Mountain Rd.  Travel West on Macks Mtn. Rd for 2.5 miles, then turn LEFT onto Lanesboro Rd.  Travel South on Lanesboro Rd for 0.5 miles, then turn Left onto Foster Pond Rd.  Travel South on Foster Pond Rd for 0.5 miles, then turn left onto Town Highway 63 and continue to the Access Area.",-72.21464965,44.32944478,62,13,29
-72.5652,43.823,33,White River,Royalton,Windsor,F&W,F&W,Fishing,N/A,None,No,Yes,Protected,Small,Spring-Summer,Light,No,No,No,No,No,Foxstand,No,No,No,No,No,No,No,No,No,No,Yes,Yes,Yes,No,No,No,No,No,No,No,No,Yes,No,No,No,No,"Take Interstate 89 to Exit 3 in Royalton.  Off the Exit turn onto  VT Route 107 East for 0.25 miles, then turn RIGHT onto VT Route 14 South.  Travel South on VT Route 14 for 0.25 miles, then turn RIGHT onto Royalton Hill Road.  Cross over the railroad tracks and the Access Area will be on the RIGHT just before the iron bridge crossing the White River.",-72.565153,43.82302556,0,0,30
-72.8647,43.1677,34,Gale Meadows Pond,Winhall,Bennington,F&W,F&W,Boating/Fishing,Small,Concrete Plank,Yes,Yes,Protected,Medium,All Year,Moderate,No,No,No,No,No,Gale Meadows Pond,No,No,No,No,No,No,No,No,No,No,No,No,No,No,No,No,Yes,No,No,Yes,Yes,No,Yes,Yes,No,No,"Take US Route 7 to Manchester, then take Exit 4 onto VT Route 30 South/VT Route 11 East.  Follow VT Route 30 South for 12 miles to Bondville.  In Bondville turn LEFT onto River Rd, which just before the Stratton Mountain Access Rd on the right.  Head North on River Rd, which becomes Gale Meadows Rd, for 1.7 miles until the road forks.  At the fork bear LEFT, staying on Gale Meadows Rd, and continue to the Access Area.",-72.864683,43.167744,195,20,31
-73.2012,43.6741,35,Lake Bomoseen,Castleton,Rutland,F&W,F&W,Boating/Fishing,Medium,Concrete,No,Yes,North,Medium,All Year,Moderate,Yes,Yes,Yes,Yes,No,Thomas Evanoika,No,No,No,No,No,No,No,No,No,No,No,Yes,No,No,No,Yes,Yes,No,Yes,No,Yes,Yes,Yes,Yes,Yes,No,"Take US Route 4 to Castleton, then take Exit 4 onto VT Route 30 North.  Travel North on VT Route 30 for 4.5 miles, then turn LEFT onto Float Bridge Rd.  Travel West on Float Bridge Rd for 0.5 miles, crossing the bridge, then turn LEFT onto Johnsonspooner Rd.  Travel South On Johnsonspooner Rd for  1 mile and the Access Area will be on the LEFT.",-73.20119429,43.6740759,2415,65,32
-71.706,44.9948,36,Great Averill Pond,Averill,Essex,F&W,F&W,Boating/Fishing,Large,Concrete,No,Yes,South,Large,All Year,Moderate,Yes,Yes,Yes,No,No,Great Averill Pond,No,No,No,No,No,No,No,No,No,No,Yes,No,No,Yes,No,Yes,No,No,No,No,No,No,No,No,No,No,"Take Interstate 91 to Exit 28 in Derby.  Off the Exit take US Route 5 North for  1 mile then turn RIGHT onto VT Route 105 South.  Travel South on VT Route 105 for 0.5 miles, then turn LEFT onto VT Route 111 East.  Continue East on VT Route 111 for 13 miles, then turn LEFT onto VT Route 114 North. Travel North for 18 miles, then turn RIGHT onto Lakeview Rd. Continue for 0.4 miles then turn RIGHT onto Cottage Rd.  Travel South on Cottage Rd for 0.25 miles and the Access Area will be on the RIGHT.",-71.70603109,44.9948056,812,108,33
-73.2332,43.6304,37,Lake Bomoseen,Castleton,Rutland,F&W,F&W,Boating/Fishing,Medium,Concrete,Yes,Yes,North,Large,All Year,Heavy,Yes,Yes,Yes,Yes,No,Kehoe,No,No,No,No,No,No,No,No,No,No,No,Yes,No,No,No,Yes,Yes,No,Yes,No,Yes,Yes,Yes,Yes,Yes,No,"Take US Route 4 to Castleton, then take Exit 4 onto VT Route 30 South. Travel for 0.25 miles, then turn Right onto VT Route 4A/Main St.  Head West on VT Route 4A/Main St for 1 mile, then turn RIGHT onto Creek Rd.  Travel North on Creek Rd for 2.0 miles and the Access Area will be on the RIGHT.",-73.23322587,43.63043891,2415,65,34
-72.4205,44.4551,38,Greenwood Lake,Woodbury,Washington,F&W,F&W,Boating/Fishing,Small,Concrete Plank,No,Yes,Protected,Small,All Year,Light,No,Yes,No,No,No,Greenwood Lake,No,No,No,No,No,No,No,No,No,No,No,Yes,No,No,No,No,Yes,No,No,Yes,No,Yes,Yes,Yes,No,No,"From Interstate 89 take Exit 8 in Montpelier onto US Route 2 East.  Travel for  7.8 miles to East Montpelier, then turn LEFT onto VT Route 14 North.  Travel North for 16 miles, through the village of Woodbury, to the intersection with Greenwood Lake Road.  Turn LEFT onto Greenwood Lake Rd and follow to the Access Area on the LEFT.",-72.42047286,44.45505909,83,41,35
-72.1394,44.284,40,Harvey Lake,Barnet,Caledonia,F&W,F&W,Boating/Fishing,Medium,Concrete,No,Yes,Protected,Medium,All Year,Moderate,No,Yes,Yes,Yes,No,Harvey Lake,No,No,No,No,No,No,No,No,No,No,No,No,Yes,Yes,No,Yes,Yes,No,No,Yes,No,No,No,Yes,No,No,"Take Interstate 91 to Exit 18 in Barnet.  Head West off the Exit, taking West Barnet Rd.  Continue for  2.5 miles, then turn LEFT onto Roy Mountain Rd.  Travel South on Roy Mountain Rd for 1 mile and the Access Area will be on the RIGHT.",-72.13942045,44.28403538,409,145,36
-72.0518,44.0666,41,Connecticut River,Newbury,Orange,Lease,F&W,Boating/Fishing,Medium,Concrete,No,Yes,Protected,Medium,Spring-Summer,Moderate,No,No,Yes,No,No,Haverill Bridge,No,No,No,No,No,No,No,No,No,No,No,Yes,Yes,No,No,No,Yes,Yes,Yes,Yes,Yes,Yes,Yes,Yes,Yes,No,"From Interstate 91 take Exit 16 for Bradford.  Off the Exit head East on VT Route 25/Waits River Rd.  Travel East for 1/2 mile, the turn Left onto US Route 5 North.  Travel North on US Route 5 for 8 miles towards Newbury, then turn RIGHT onto Newbury Crosssing Rd.  Travel East for 1/4 mile and the Access Area will be on the LEFT.",-72.05176012,44.06658811,0,0,37
-73.3319,44.8549,42,Lake Champlain,Isle La Motte,Grand Isle,F&W,F&W,Boating/Fishing,Medium,Concrete,No,Yes,East,Medium,All Year,Light,Yes,Yes,No,No,Yes,Holcomb Bay,No,No,No,No,No,No,Yes,No,No,No,No,No,No,Yes,Yes,No,Yes,Yes,Yes,Yes,Yes,Yes,Yes,Yes,Yes,No,"From Interstate 89 take Exit 17 onto US Route 2 West towards the Lake Champlain Islands.  Travel for 27.1 miles, crossing the bridge to Alburg, then turn LEFT onto VT Route 129 West.  Travel West on VT Route 129 for 3.5 miles, then cross the bridge onto Isle La Motte and turn LEFT onto Main St.  Travel South on Main Street for 3.5 miles, then turn LEFT onto Quarry Rd.  Travel 1/2 mile on Quarry Rd and the Access Area will be on the RIGHT.",-73.33185537,44.85487128,172800,400,38
-71.9344,44.9858,43,Holland Pond,Holland,Orleans,F&W,F&W,Boating/Fishing,Small,Concrete Plank,No,Yes,South,Small,Spring-Summer,Light,No,No,No,No,No,Holland Pond,No,No,No,No,No,No,No,No,No,No,No,No,Yes,No,No,No,No,No,No,Yes,No,No,No,No,No,No,"Take Interstate 91 to Exit 28 in Derby.  Take US Route 5 North for 1 mile, then turn RIGHT onto VT Route 105 East.  Travel 1/2 mile, then turn LEFT onto VT Route 111.  Travel East on VT Route 111 for  2 miles, then turn LEFT onto Bates Hill Rd.  Travel East on Bates Hill Rd, which will become Lackey Rd, for  4.5 miles, the turn RIGHT onto East Shore Rd, followed by a left onto Fishing Access Rd, which leads to the Access Area.",-71.934435,44.985766,334,39,39
-73.3136,44.9139,44,Lake Champlain,Alburg,Grand Isle,F&W,F&W,Boating/Fishing,Medium,Concrete,No,Yes,"West, South",Medium,All Year,Light,No,Yes,No,No,Yes,Horicans,No,No,No,No,No,No,Yes,No,No,No,No,No,No,Yes,Yes,No,Yes,Yes,Yes,Yes,Yes,Yes,Yes,Yes,Yes,No,"From Interstate 89 take Exit 17 onto US Route 2 West towards the Lake Champlain Islands.  Travel 27.1 miles, crossing the bridge into Alburg, then turn LEFT onto VT Route 129 West.  Continue on VT Route 129 for 3 miles, then turn RIGHT, just before the bridge to Isle La Motte, onto West Shore Rd.  Travel North for 1/2 mile, and the Access Area will be on the LEFT.",-73.3136117,44.91387362,172800,400,40
-72.2094,44.6157,45,Horse Pond,Greensboro,Orleans,F&W,F&W,Boating/Fishing,Small,Gravel,No,Yes,Protected,Small,Spring,Light,No,No,No,No,No,Horse Pond,No,No,No,No,No,No,No,No,No,No,No,No,No,No,No,No,Yes,No,No,Yes,No,No,Yes,No,No,No,"Take Interstate 91 to exit 25 in Barton.  Take VT Route 16 South for  8.5 miles, then turn RIGHT onto Horse Pond Rd,  and the Access Area will be on the RIGHT.",-72.2094388,44.61573944,32,4,41
-73.2107,43.7524,46,Hortonia Lake,Sudbury,Rutland,F&W,F&W,Boating/Fishing,Small,Gravel,No,Yes,Protected,Medium,Spring-Summer,Light,No,Yes,Yes,Yes,No,Hortonia Lake,No,No,No,No,No,No,No,No,No,No,No,No,No,No,No,No,Yes,No,Yes,No,Yes,No,Yes,Yes,Yes,No,Take US Route 7 to Brandon.  Turn onto VT Route 73 West and drive for  5.5 miles to VT Route 30.  Turn LEFT onto VT Route 30 South and continue for  4.5 miles to Lake Hortonia Rd.  Turn RIGHT onto Lake Hortonia Rd and travel West for  1 mile to the Fishing Access Rd.  Turn LEFT onto the Fishing Access Rd and follow to the Access Area on the RIGHT.,-73.21070754,43.75237938,479,60,42
-73.2219,43.7456,47,Hortonia Lake,Hubbardton,Rutland,F&W,F&W,Boating/Fishing,Medium,Concrete Plank,No,Yes,Protected,Small,All Year,Moderate,No,Yes,Yes,Yes,No,Hortonia Lake Dam,No,No,No,No,No,No,No,No,No,No,No,No,No,No,No,No,Yes,No,Yes,No,Yes,No,Yes,Yes,Yes,No,"Take US Route 4 to Exit 2 in Fair Haven, and turn onto VT Route 22A North.  Travel for 8.2 miles to VT Route 144.  Turn RIGHT onto VT Route 144 East.  Travel for  3 miles and the Access Area will be on the LEFT.",-73.22192474,43.74564774,479,60,43
-72.4302,43.2606,48,Connecticut River,Springfield,Windsor,F&W,F&W,Boating/Fishing,Large,Concrete,Yes,Yes,Protected,Large,All Year,Heavy,Yes,Yes,Yes,Yes,No,Hoyts Landing,No,No,No,No,No,No,No,No,No,No,No,No,No,No,No,No,Yes,Yes,Yes,Yes,Yes,Yes,Yes,Yes,No,No,"Take Interstate 91 to Exit 7 in Springfield.  Take US Route 5 North for 1/2 mile, and the Access Area will be on the RIGHT, just before the bridge crossing the Connecticut River.",-72.43015776,43.26062777,0,0,44
-71.8664,44.7928,49,Island Pond,Brighton,Essex,F&W,F&W,Boating/Fishing,Medium,Concrete,No,Yes,Northeast,Small,All Year,Moderate,No,Yes,Yes,Yes,No,Island Pond,No,No,No,No,No,No,No,No,No,No,Yes,Yes,Yes,No,No,Yes,Yes,Yes,No,Yes,Yes,Yes,Yes,No,No,Yes,"Take Interstate 91 to Exit 28 in Derby.  Take US Route 5 North for  1 mile, then turn RIGHT onto VT Route 105.  Travel East on VT Route 105 for 18 miles, then VT Route 105 becomes Derby St.  Travel East on Derby St for 1/2 mile, then turn RIGHT onto Pleasant St.  Travel South on Pleasant St for 1/4 mile, and the Access Area will be on the LEFT.",-71.86635944,44.79275681,608,63,45
-71.9522,44.7603,50,Job's Pond,Westmore,Orleans,F&W,F&W,Boating/Fishing,Small,Gravel,No,Yes,Northwest,Small,All Year,Light,No,No,No,No,No,Job's Pond,No,No,No,No,No,No,No,No,No,No,Yes,No,No,No,No,No,No,No,No,No,No,No,No,No,No,No,"Take Interstate 91 to Exit 26 in Barton.  Take US Route 5 South for 18 miles to West Burke, then turn LEFT onto VT Route 5A.  Travel North on VT Route 5A for approximately 3/4 mile, then turn RIGHT onto Newark St.  Travel North on Newark St, which becomes Abbot Hill Rd. for 9 miles, and the Access Area will be on the LEFT.",-71.95223281,44.76026419,39,18,46
-72.2183,44.4036,51,Joe's Pond,Danville,Caledonia,F&W,F&W,Boating/Fishing,Medium,Concrete,No,Yes,North,Small,All Year,Moderate,No,Yes,Yes,Yes,No,Joe's Pond,No,No,No,No,No,No,No,No,No,No,No,Yes,Yes,No,No,No,Yes,No,Yes,Yes,No,Yes,Yes,Yes,No,No,"Take Interstate 91 to Exit 21 in St. Johnsbury.  Take US Route 2 West for 10 miles, then turn RIGHT onto Fitts Rd and continue to the Access Area at the end.",-72.21832,44.403617,396,78,47
-72.1807,44.9961,52,Lake Memphremagog,Derby,Orleans,F&W,F&W,Boating/Fishing,Small,Gravel,No,Yes,Protected,Small,Spring-Summer,Light,No,No,No,No,No,Johns River,No,Yes,No,No,No,No,No,No,No,No,No,Yes,Yes,Yes,Yes,Yes,Yes,Yes,Yes,Yes,Yes,Yes,Yes,Yes,No,Yes,"Take Interstate 91 to Exit 28 in Derby.  Take US Route 5 South for 1/2  mile, then turn RIGHT onto Shattuck Hill Rd.  Travel West on Shattuck Hill Rd for  1 mile, then turn RIGHT onto Darling Hill Rd.  Travel North on Darling Hill Rd. until the road forks.  Veer LEFT at the fork onto North Derby Rd.  Travel 1.7 miles and the Access Area will be on the LEFT.",-72.18073804,44.99612814,6317,351,48
-73.3205,44.6678,53,Lake Champlain,South Hero,Grand Isle,F&W,F&W,Boating/Fishing,Small,Gravel,No,Yes,Protected,Small,All Year,Light,No,Yes,Yes,Yes,No,Keeler Bay,Yes,No,No,No,No,No,Yes,No,No,No,No,Yes,No,No,Yes,No,Yes,Yes,Yes,Yes,Yes,Yes,Yes,Yes,Yes,No,"Take Interstate 89 to Exit 17 and turn onto US Route 2 West towards the Lake Champlain Islands.  Travel West for 12 miles, going through the town of South Hero.  The Access Area will be on the RIGHT, shortly after the town.",-73.32053,44.667811,172800,400,49
-73.3317,44.9989,54,Lake Champlain,Alburg,Grand Isle,F&W,F&W,Boating/Fishing,Medium,Concrete Plank,No,Yes,West,Medium,All Year,Moderate,No,Yes,Yes,Yes,No,Kelly Bay,Yes,No,No,No,No,No,Yes,No,Yes,No,No,No,No,No,No,No,Yes,Yes,Yes,Yes,Yes,Yes,Yes,Yes,Yes,No,"From Interstate 89 take Exit 17 onto US Route 2 West towards the Lake Champlain Islands.  Continue on US Route 2 West for  34.8 miles to Alburg Village.  Proceed through Alburg Village, and continue on US Route 2 West for 3.1 miles until you reach the bridge to Rouses Point, NY.  The Access Area will be on the LEFT just before crossing the bridge.",-73.33169,44.998866,172800,400,50
-72.8079,43.6748,55,Kent Pond,Killington,Rutland,F&W,F&W,Boating/Fishing,Small,Concrete Plank,No,Yes,Protected,Large,Spring-Summer,Light,No,No,No,No,No,Kent Pond,No,No,No,No,No,No,No,No,No,No,Yes,No,Yes,No,No,No,Yes,No,No,No,Yes,No,No,Yes,No,No,"Take US Route 4 to Killington, then turn North onto VT Route 100.  Travel North on VT Route 100 for1/2 mile, and the Access Area will be on the RIGHT.",-72.80794281,43.67480656,71,15,51
-72.1707,44.3846,56,Keiser Pond,Peacham,Caledonia,F&W,F&W,Boating/Fishing,Small,Concrete Plank,No,No,Protected,Small,Spring,Light,No,No,No,No,No,Keiser Pond,No,No,No,No,No,No,No,No,No,No,No,No,No,No,No,No,Yes,No,No,Yes,No,No,Yes,No,No,No,"Take Interstate 91 to Exit 21 in St. Johnsbury.  Turn onto US Route 2 West and travel for 10 miles, then turn LEFT onto Keiser Pond Rd.  Travel South on Keiser Pond Rd for 2.5 miles, and the Access Area will be on the LEFT.",-72.17072459,44.3846477,33,20,52
-73.2506,44.8698,57,Lake Champlain,North Hero,Grand Isle,F&W,F&W,Boating/Fishing,Medium,Concrete,No,Yes,Northeast,Medium,All Year,Moderate,Yes,Yes,Yes,Yes,No,Kings Bay,Yes,No,No,No,No,No,Yes,No,Yes,No,No,Yes,No,No,Yes,No,Yes,Yes,Yes,Yes,Yes,Yes,Yes,Yes,Yes,No,"Take Interstate 89 to Exit 17 in Colchester.  Turn onto US Route 2 West towards the Lake Champlain Islands.  Continue on US Route 2 West for  25 miles, through the town of North Hero, then turn RIGHT onto Lakeview Dr.  Travel North on Lakeview Drive for 1/2 mile, and the Access Area will be on the RIGHT.",-73.25061107,44.8697732,172800,400,53
-72.5621,43.4454,58,Knapp Pond #1,Cavendish,Windsor,F&W,F&W,Boating/Fishing,Small,Concrete Plank,Yes,Yes,Protected,Large,Trout Season Only,Moderate,No,No,No,No,No,Knapp Pond 1,No,No,No,No,No,No,No,No,No,No,No,No,Yes,No,No,No,No,No,No,No,No,No,No,No,No,No,"Take Interstate 91 to Exit 8 in Weathersfield.  Off the Exit take VT Route 131 West for 6.5 miles, then turn RIGHT onto VT Route 106.  Travel North on VT Route 106 for 3.5 miles, then turn LEFT onto Knapp Brook Rd.  Travel West on Knapp Brook Rd, which becomes Felchvilled Gulf Rd, for  1 mile, then turn RIGHT onto Knapp Pond Rd.  Travel west on Knapp Pond Rd for 1.5 miles, and the Access Area will be on the RIGHT.",-72.562106,43.445372,25,12,54
-72.5661,43.4459,59,Knapp Pond #2,Cavendish,Windsor,F&W,F&W,Boating/Fishing,Small,Concrete Plank,No,Yes,Protected,Medium,Trout Season Only,Light,No,No,No,No,No,Knapp Pond 2,No,No,No,No,No,No,No,No,No,No,Yes,No,No,No,No,No,No,No,No,No,No,No,No,No,No,No,"Take Interstate 91 to exit 8 in Weathersfield.  Off the Exit take VT Route 131 west for 6.5 miles, then turn RIGHT onto VT Route 106.  Travel North on VT Route 106 for  3.5 miles, then turn RIGHT onto VT Route 106.  Travel North on VT Route 106 for 3.5 miles, then turn LEFT onto Knapp Brook Rd.  Travel West on Knapp Brook Rd, which becomes Felchville Gulf Rd, for 1 mile, then turn RIGHT onto Knapp Pond Rd.  Travel West on Knapp Pond Rd for approximately 1.5 miles and the Access Area will be on the RIGHT.",-72.566078,43.445915,35,20,55
-73.0855,43.9071,60,Lake Dunmore,Salisbury,Addison,F&W,F&W,Boating/Fishing,Medium,Concrete,No,Yes,Protected,Large,Spring,Heavy,Yes,Yes,Yes,Yes,No,Magoon,No,No,No,No,No,No,No,No,No,No,No,No,Yes,Yes,Yes,Yes,Yes,No,Yes,No,Yes,Yes,Yes,Yes,Yes,No,"Take US Route 7 to Salisbury, then turn East onto VT Route 53/Lake Dunmore Rd.  Travel East on Lake Dunmore Rd for 1.5 miles, then turn right onto West Shore Rd.  Travel South on West Shore Rd for  6 miles and the Access Area will be on the LEFT.",-73.08545646,43.90709976,1037,105,56
-72.4959,44.7288,61,Lake Eden,Eden,Lamoille,F&W,F&W,Boating/Fishing,Small,Gravel,No,Yes,South,Small,All Year,Light,No,No,No,No,No,Lake Eden,No,No,No,No,No,No,No,No,No,No,No,Yes,No,No,No,No,Yes,No,No,Yes,No,Yes,Yes,Yes,No,No,"Take Interstate 91 to Exit 26 in Orleans.  Off the Exit follow US Route 5 North, then immediately turn LEFT onto VT Route 58 West.  Travel West for 12.8 miles, then  Turn LEFT onto VT Route 100 South, and continue for 7 miles to the Access Area on the LEFT.",-72.49588277,44.72880622,186,40,57
-72.358,44.6036,62,Lake Eligo,Greensboro,Orleans,F&W,F&W,Boating/Fishing,Medium,Concrete,No,Yes,North,Medium,All Year,Moderate,No,Yes,No,No,No,Lake Elligo,No,No,No,No,No,No,No,No,No,No,No,No,Yes,Yes,No,No,Yes,No,No,Yes,Yes,No,Yes,Yes,No,No,"Take Interstate 91 to Exit 27 in Orleans.  Off the Exit follow US Route 5 North, then immediately turn LEFT onto VT Route 58 West.  Travel West for  3.3 miles to Irasburg, then turn LEFT onto VT Route 14 South.  Travel South on VT Route 14 for 18 miles and the Access Area will be on the LEFT.",-72.35795513,44.60364523,190,100,58
-72.5213,44.527,63,Lake Elmore,Elmore,Lamoille,F&W,F&W,Boating/Fishing,Medium,Concrete,No,Yes,North,Medium,All Year,Moderate,No,Yes,No,No,No,Vaughn M. Douglass,No,No,No,No,No,No,No,No,No,No,No,No,No,No,No,No,Yes,No,Yes,No,No,Yes,Yes,Yes,No,No,"Take Interstate 89 to Exit 10 for Waterbury/Stowe.  Off the Exit follow VT Route 100 North towards Stowe.  Travel for 18.4 miles to the town of Morrisville.  In Morrisville turn RIGHT onto VT Route 12 South/Elmore Rd. Travel South for  4.5 miles, and the Access Area will be on the RIGHTat the south end of the lake.",-72.52129896,44.52698928,224,17,59
-72.2269,43.8905,64,Lake Fairlee,West Fairlee,Orange,F&W,F&W,Boating/Fishing,Medium,Concrete Plank,No,Yes,Northeast,Medium,All Year,Heavy,No,Yes,Yes,Yes,No,Lake Fairlee,No,No,No,No,No,No,No,No,No,No,No,Yes,Yes,No,No,Yes,Yes,No,No,Yes,Yes,Yes,Yes,Yes,No,No,"Take Interstate 91 to Exit 15 for Fairlee.  Off the Exit take Lake Morey Rd to US Route 5 South, then travel for 2.4 miles to VT Route 244.  Turn RIGHT onto VT Route 244 West and travel for 4 miles to the Access Area on the LEFT.",-72.2268566,43.89051079,457,50,60
-73.0902,44.3771,65,Lake Iroquois,Williston,Chittenden,F&W,F&W,Boating/Fishing,Medium,Concrete Plank,No,Yes,Protected,Medium,All Year,Moderate,Yes,Yes,Yes,No,No,Lake Iroquois,No,No,No,No,No,No,No,No,No,No,No,No,No,No,No,No,Yes,No,No,Yes,Yes,Yes,Yes,Yes,No,No,"Take Interstate 89 to Exit 12 in Williston.  Off the Exit, take VT Route 2A South for 2.5 miles, then turn LEFT onto Butternut Rd.  Travel East on Butternut RD for 2 miles, then turn RIGHT onto Oak Hill Rd.  Travel South on Oak Hill Rd for  2 miles, then turn LEFT onto Beebe lane, and the Access Area will be on the RIGHT.",-73.09015174,44.37707837,229,37,61
-72.1593,43.9213,66,Lake Morey,Fairlee,Orange,F&W,F&W,Boating/Fishing,Medium,Concrete,No,Yes,Northeast,Small,All Year,Heavy,No,Yes,Yes,Yes,No,Lake Morey,No,No,No,No,No,No,No,No,No,No,No,No,No,No,No,No,Yes,No,Yes,Yes,Yes,Yes,Yes,Yes,No,No,Take Interstate 91 to Exit 15 in Fairlee.  Off the Exit take Lake Morey Rd West for 1.5 miles and the Access Area will be on the RIGHT.,-72.15932407,43.92126846,547,43,62
-72.7603,43.4749,67,Lake Ninevah,Mount Holly,Rutland,F&W,F&W,Boating/Fishing,Small,Gravel,No,Yes,Southeast,Small,Spring,Light,No,No,Yes,No,No,Joseph Wiltshire,No,No,No,No,No,No,No,No,No,No,No,No,No,No,No,No,Yes,No,No,Yes,Yes,Yes,Yes,Yes,No,No,"Take US Route 7 to Wallingford, then turn East onto VT Route 140.  Travel East for 6 miles, then turn RIGHT onto VT Route 103 South.  Travel South on VT Route 103 for  6 miles, then turn LEFT onto Sawyer Hill Rd.  Travel North on Sawyer Hill Rd, which becomes Townsend Barn Rd for 2.5 miles and the Access Area will be on the LEFT.",-72.76032392,43.47491754,171,12,63
-72.2314,44.7261,68,Lake Parker,Glover,Orleans,F&W,F&W,Boating/Fishing,Medium,Concrete,No,Yes,South,Medium,All Year,Light,No,Yes,Yes,No,No,Lake Parker,No,No,No,No,No,No,Yes,No,No,No,No,No,Yes,No,No,No,Yes,No,No,Yes,Yes,Yes,Yes,Yes,No,No,"Take Interstate 91 to Exit 25 in Barton.  Off the Exit take VT Route 16 North for 1/2 mile, then turn LEFT onto Roaring Brook Rd.  Travel West on Roaring Brook Rd, which becomes West Glover Rd, for 2.5 miles, then turn RIGHT onto County Rd.  Travel West on County Rd for 1/4 mile, then turn LEFT onto Access Lane and continue to the Access Area.",-72.23135777,44.72613725,239,45,64
-72.8201,42.8839,69,Lake Raponda,Wilmington,Windham,F&W,F&W,Boating/Fishing,Small,Gravel,No,Yes,Protected,Small,All Year,Light,No,No,No,No,No,Lake Raponda,No,No,No,No,No,No,No,No,No,No,No,No,Yes,No,No,No,Yes,No,No,Yes,No,Yes,Yes,Yes,No,No,"From Interstate 91 take Exit 2 for Brattleboro.  Off the Exit take VT Route 9 West for 18 miles towards the town of Wilmington.  Just East of Wilmington, after passing Molly Stark State Park, turn Right onto Lake Raponda Rd.  Travel North on Lake Raponda Rd to the Access Area at the North end of the Lake.",-72.82009472,42.88393457,116,12,65
-72.7019,43.4559,70,Lake Rescue,Ludlow,Windsor,F&W,F&W,Boating/Fishing,Medium,Concrete Plank,No,Yes,Protected,Small,All Year,Moderate,No,Yes,Yes,No,No,Lake Rescue,No,No,No,No,No,No,No,No,No,No,No,Yes,Yes,Yes,No,Yes,Yes,No,No,Yes,Yes,Yes,Yes,Yes,No,No,"Take US Route 4 to West Bridgewater, the turn South onto VT Route 100.  Travel South on VT Route 100 for 8 miles, the turn LEFT onto Kingdom Rd.  Travel East for 1/2 mile, then turn RIGHT on Buzwell Pond Rd.  At the fork, veer LEFT onto E. Lake Rd, then turn RIGHT onto Ellisons Lake Rd.  Travel West on Ellisons Lake Rd for 1/2 mile, then turn LEFT onto Fishing Access Rd and continue to the Access Area.",-72.70193141,43.45594901,229,90,66
-72.8768,42.7858,71,Lake Sadawga,Whitingham,Windham,F&W,F&W,Boating/Fishing,Small,Gravel,No,Yes,Protected,Small,All Year,Moderate,No,Yes,No,No,No,Lake Sadawga,No,No,No,No,No,No,No,No,No,No,No,No,No,No,No,No,Yes,No,No,Yes,Yes,No,Yes,Yes,No,No,"From Interstate 91 take Exit 2 for Brattleboro.  Off the Exit take VT Route 9 West for 17 miles, then turn LEFT onto VT Route 100 South.  Travel South on VT Route 100 for 8.7 miles, through the town of Jacksonville, to Lake Sadawga Rd.  Turn LEFT on Lake Sadawga Rd and the Access Area will be on the RIGHT just before the road crosses the stream.",-72.87676264,42.78575238,194,10,67
-73.2043,43.4446,72,Lake Saint Catherine,Wells,Rutland,F&W,F&W,Boating/Fishing,Medium,Concrete,No,Yes,Protected,Medium,Spring-Summer,Heavy,Yes,No,Yes,No,No,Lake Saint Catherine,No,No,No,No,No,No,No,No,No,No,No,Yes,Yes,No,No,No,Yes,No,Yes,No,Yes,Yes,Yes,Yes,Yes,No,"Take US Route 7 to Wallingford, then turn onto VT Route 140 West.  Travel West on VT Route 140 for 8 miles, then turn LEFT onto VT Route 133 South/South St in Middletown Springs.  Travel South on VT Route 133 until you reach West Tinmouth and turn RIGHT onto Wells Rd.  Continue driving until you reach Wells, then turn RIGHT onto North St.  Travel North on North St for 1.5 miles, then turn RIGHT on South Lake Rd, followed by an immediate LEFT onto Bert's Nest Rd.  Continue to the Access Area on the RIGHT.",-73.20429941,43.4445672,883,64,68
-72.0534,44.7687,73,Lake Willoughby,Westmore,Orleans,F&W,F&W,Boating/Fishing,Medium,Gravel,No,Yes,Southwest,Small,All Year,Heavy,Yes,Yes,Yes,Yes,No,Lake Willoughby,No,No,No,No,No,No,No,No,No,No,No,No,Yes,Yes,Yes,Yes,Yes,No,No,No,No,No,No,No,No,Yes,"Take Interstate 91 to Exit 23 in Lyndon.  Off the Exit, head North on US Route 5 for 9.5 miles to West Burke.  In West Burke turn RIGHT onto VT Route 5A North.  Travel North for 9 miles, and the Access Area will be on the LEFT.",-72.05341337,44.76869916,1653,308,69
-72.5495,44.5674,74,Lamoille River,Morristown,Lamoille,F&W,F&W,Fishing,N/A,None,No,Yes,Protected,Small,Spring,Light,No,No,No,No,No,Rotary,No,No,No,No,No,No,No,No,No,No,Yes,Yes,Yes,No,Yes,No,Yes,No,No,No,No,No,No,No,No,No,"From Interstate 89 take Exit 10 and follow VT Route 100 North for 20 miles towards Morrisville.  At Morrisville center (four corners) continue straight on Main St for 1/4 mile, then bear LEFT onto VT Route 15A.  Continue on VT Route 15A for 2 miles to where it meets VT Route 15.  Turn RIGHT on VT Route 15 East and continue for 1.5 miles to the Access Area on the RIGHT.",-72.549541,44.567435,0,0,70
-73.3919,43.926,75,Lake Champlain,Shoreham,Addison,F&W,F&W,Boating/Fishing,Medium,Concrete,No,Yes,West,Large,All Year,Heavy,No,Yes,Yes,No,No,Lapham Bay,Yes,Yes,Yes,Yes,Yes,No,Yes,No,Yes,No,No,No,No,No,No,No,Yes,Yes,Yes,Yes,Yes,Yes,Yes,Yes,Yes,No,"Take US Route 7 to Middlebury, then turn onto VT Route 30 South.  Travel South for 4 miles, then turn RIGHT onto VT Route 74.  Travel West on VT Route 74 for 4 miles, then turn RIGHT onto Doolittle Rd.  Travel West on Doolittle Rd for 1.5 miles, to where Doolittle Rd becomes Lapham Bay Rd.  Travel West on Lapham Bay Rd for 4 miles.  When the road tees turn RIGHT followed by a quick LEFT to the reach the Access Area.",-73.39188429,43.92596177,172800,400,71
-73.3695,43.8491,76,Lake Champlain,Shoreham,Addison,F&W,F&W,Boating/Fishing,Medium,Concrete,No,Yes,Protected,Large,All Year,Heavy,Yes,Yes,Yes,Yes,No,Larrabees Point,Yes,Yes,Yes,Yes,Yes,No,Yes,No,Yes,No,No,No,No,No,No,No,Yes,Yes,Yes,Yes,Yes,Yes,Yes,Yes,Yes,No,"Take US Route 7 to Middlebury, then take VT Route 125 West for  8.5 miles to the intersection with VT Route 22A in Bridport.  Turn LEFT onto VT 22A South and travel for 6.6 miles to VT Route 74 in Shoreham.  Turn RIGHT onto VT Route 74 West and continue for  4.7 miles to VT Route 73. Turn LEFT onto VT Route 73 East, followed soon after by a RIGHT onto Hanson Rd.  The Access Area will be on the RIGHT off of Hanson Rd.",-73.3694712,43.84912535,172800,400,72
-73.2744,44.2485,77,Lewis Creek,Ferrisburg,Addison,Lease,F&W,Boating/Fishing,Medium,Concrete Plank,No,Yes,Protected,Medium,Spring-Summer,Light,No,No,No,No,Yes,Lewis Creek,Yes,No,No,No,No,No,Yes,No,Yes,No,No,Yes,Yes,Yes,Yes,No,Yes,Yes,Yes,Yes,Yes,Yes,Yes,Yes,No,No,"Take US Route 7 to Ferrisburgh.  After traveling 1.4 miles north of the village turn West onto Greenbush Rd.  Continue on Greenbush Rd for  2 miles, then turn LEFT onto Long Point Rd.  Travel West on Long Point Rd for 1.5 miles to where the road forks.  Veer LEFT onto Bay Rd and continue for 0.2 miles to the Access road on the LEFT.  Follow the Access Rd for 1/4 mile to the Access Area at the end.",-73.27443924,44.24850206,0,0,73
-72.0996,44.9193,78,Little Salem Lake,Derby,Orleans,F&W,F&W,Boating/Fishing,Small,Gravel,No,Yes,South,Small,Spring,Light,No,No,No,No,No,Little Salem Lake,No,No,No,No,No,No,No,No,No,No,No,No,No,No,No,No,Yes,Yes,No,Yes,Yes,Yes,Yes,Yes,No,No,"Take Interstate 91 to Exit 28 in Derby.  Off of the Exit take US Route 5 North for 1 mile, then turn RIGHT onto VT Route 105.  Take VT Route 105 East for 2.5 miles, then turn LEFT onto Haywood Road.  Continue to the Access Area on the RIGHT.",-72.09963881,44.91925426,788,70,74
-72.0201,44.7563,80,Long Pond,Westmore,Orleans,F&W,F&W,Boating/Fishing,Small,Gravel,No,Yes,South,Small,All Year,Light,No,No,Yes,No,No,Long Pond (Westmore),No,No,No,No,No,No,No,No,No,No,Yes,No,No,Yes,No,No,No,No,No,No,No,No,No,No,No,No,"From Interstate 91 take Exit 23 for Lyndon.  Off the Exit follow US Route 5 North for 9.5 miles to West Burke, then turn RIGHT onto VT Route 5A North.  Continue North for 3.5 miles, then turn RIGHT onto Newark Pond Rd.  Travel North on Newark Pond Rd for 1.5 miles.  At the for veer LEFT onto Long Pond Rd.  Follow Long Pond Rd North for  3.5 miles, and the Access Area will be on the LEFT.",-72.02012201,44.75628247,103,74,75
-72.0999,44.2398,81,Lower Symes Pond,Ryegate,Caledonia,F&W,F&W,Boating/Fishing,Small,Gravel,No,No,Protected,Small,"Spring, Summer, Fall",,No,No,No,No,No,Lower Symes Pond,No,No,No,No,No,No,No,No,No,No,No,No,No,No,No,No,No,No,No,Yes,No,No,Yes,No,No,No,"Take Interstate 91 to Exit 18 in Barnet.  Off the Exit head East on Bimson Dr for 0.25 miles to the intersection with US Route 5.  Turn RIGHT onto US Route 5 South and travel for 1.7 miles to Garland Hill Rd. Travel under the Interstate to where the road forks and veer LEFT onto Symes Pond Rd and travel West for 2 miles to Hunt Mill Rd.  Turn RIGHT onto Hunt Mill Rd, and the Access Area will be on the RIGHT.",-72.09991543,44.23977252,57,,76
-72.2469,44.4468,82,Lyford Pond,Walden,Caledonia,F&W,F&W,Boating/Fishing,Carry-on,None,No,Yes,Protected,Small,Spring-Summer,Light,No,No,No,No,No,Lyford Pond,No,No,No,No,No,No,No,No,No,No,No,No,No,No,No,No,Yes,No,No,Yes,Yes,No,Yes,Yes,No,No,"From Interstate 89 take Exit 21 and follow US Route 2 West to West Danville.  In West Danville turn RIGHT onto VT Route 15 West.  Travel West for 4.5 miles, then turn LEFT onto North Pond Rd.  The Access Area will be on the LEFT.",-72.24686458,44.44675314,33,22,77
-71.649,44.6646,83,Maidstone Lake,Maidstone,Essex,Lease,F&W,Boating/Fishing,Medium,Concrete,No,Yes,Protected,Medium,Spring,Heavy,Yes,Yes,Yes,No,No,Maidstone Lake,No,No,No,No,No,No,No,No,No,No,No,No,Yes,Yes,No,No,Yes,No,No,No,No,No,Yes,Yes,No,Yes,"From Interstate 89 take Exit 21 onto US Route 2 East and travel 28.5 miles, going through Lunenburg, until the intersection with VT Route 102.  Turn LEFT onto VT Route 102 North and continue for 16 miles, then turn LEFT onto Maidstone Lake Rd.  Travel West on Maidstone Lake Rd for 4 miles to reach the Access Area.",-71.64895661,44.66456607,796,121,78
-73.2316,44.5528,84,Lake Champlain,Colchester,Chittenden,F&W,F&W,Boating/Fishing,Large,Concrete,No,Yes,Protected,Large,All Year,Heavy,Yes,Yes,Yes,Yes,No,Malletts Bay,Yes,No,Yes,No,No,No,Yes,No,Yes,No,Yes,Yes,No,Yes,Yes,Yes,Yes,Yes,Yes,Yes,Yes,Yes,Yes,Yes,Yes,No,"Take Interstate 89 to Exit 16 in Colchester.  Off the Exit take US Route 7/US Route 2 North to Blakely Rd. Turn LEFT onto Blakely Rd and follow to the intersection with VT Route 127/Burlington Beltline.  The Access Area will be on the RIGHT, just after the RIGHT turn for VT Route 127, and across from the Malletts Bay campground.",-73.23161717,44.55278258,172800,400,79
-72.3032,44.3631,85,Mollys Falls Reservoir,Cabot,Washington,Lease,F&W,Boating/Fishing,Medium,Concrete Plank,Yes,Yes,Protected,Large,All Year,Heavy,Yes,Yes,Yes,Yes,No,Marshfield Dam,No,No,No,No,No,No,No,No,No,No,No,Yes,Yes,No,No,No,Yes,No,Yes,Yes,No,Yes,Yes,Yes,No,No,"Take Interstate 89 to Exit 8 in Montpelier.  Off the Exit take US Route 2 East for 19 miles and the Access Area will be on the RIGHT, just after the Dam.",-72.30320026,44.36314246,65,18,80
-73.3104,44.5996,86,Lake Champlain,South Hero,Grand Isle,F&W,F&W,Fishing,N/A,None,Yes,Yes,Moderate,Small,"Spring, Summer, Fall",Moderate,No,No,Yes,No,No,Allen Point,No,No,No,No,No,No,Yes,No,Yes,No,No,Yes,No,Yes,Yes,Yes,Yes,Yes,Yes,Yes,Yes,Yes,Yes,Yes,No,No,From Interstate 89 Take Exit 1,-73.31042707,44.59961876,172800,400,81
-73.2404,44.6259,88,Lake Champlain,Milton,Chittenden,F&W,F&W,Boating/Fishing,Small,Gravel,No,Yes,Protected,Large,All Year,Heavy,No,Yes,Yes,No,No,Sand Bar WMA,No,No,No,No,No,No,Yes,No,No,No,No,No,No,No,No,No,Yes,Yes,Yes,Yes,Yes,Yes,Yes,Yes,Yes,No,Take Interstate 89 to Exit 17 in Colchester.  Off the exit take US Route 2 West towards the Lake Champlain Islands.  Travel West for 5 miles to Sandbar State Park.  The Access Area will be on the LEFT before the bridge to South Hero.,-73.240399,44.625914,172800,400,82
-72.3736,44.5358,89,Hardwick Lake,Hardwick,Caledonia,F&W,F&W,Boating,Small,Gravel,No,No,Protected,N/A,Spring-Summer,Light,No,No,No,No,No,Hardwick Lake,No,No,No,No,No,No,No,No,No,No,No,No,No,No,No,No,Yes,No,No,Yes,No,No,Yes,Yes,No,No,,-72.373562,44.535792,145,,83
-72.07,44.1514,90,Wells River,Newbury,Orange,F&W,F&W,Fishing,N/A,None,No,Yes,,Small,Spring-Summer,Light,No,No,No,No,No,Wells River,No,No,No,No,No,No,No,No,No,No,No,No,Yes,No,No,No,No,No,No,No,No,No,No,No,No,No,Take,-72.070009,44.15135,0,0,84
-72.2002,44.8716,91,Barton River,Coventry,Orleans,F&W,F&W,Boating/Fishing,Carry-on,None,No,Yes,,Small,Spring-Summer,Light,No,No,No,No,No,Coventry Station,No,No,No,No,No,No,No,No,No,No,No,No,No,No,No,No,Yes,No,No,No,No,No,No,No,No,No,,-72.20023444,44.87160695,0,0,85
-73.3153,43.7908,93,East Creek,Orwell,Addison,F&W,F&W,Fishing,Carry-on,None,No,Yes,,Small,Spring-Summer,Light,No,No,No,No,No,East Creek 2,No,No,No,No,No,No,No,No,No,No,No,No,No,No,No,No,No,No,No,No,No,No,No,No,No,No,,-73.315325,43.790772,31,,86
-73.3181,43.8015,94,East Creek,Orwell,Addison,F&W,F&W,Fishing,N/A,None,No,Yes,,Small,Spring-Summer,Light,No,No,No,No,No,East Creek 1,No,No,No,Yes,No,No,No,No,No,No,No,No,No,No,No,No,No,No,No,No,No,No,No,No,No,No,,-73.318102,43.801544,31,,87
-72.2056,44.3042,96,Martins Pond,Peacham,Caledonia,F&W,F&W,Boating/Fishing,Small,Concrete Plank,No,Yes,Protected,Small,Spring,Light,No,No,No,No,No,Martins Pond,No,No,No,No,No,No,No,No,No,No,Yes,No,No,No,No,No,No,No,No,No,No,No,Yes,No,No,No,"Take US Route 2 to Danville, then turn South onto Peacham Rd.  Travel South on Peacham Rd, which becomes Old County Road, for 5 miles, then turn RIGHT onto Old Cemetery Road.  Travel West on Old Cemetery Road, which becomes Church St, and then becomes Green Bay Loop, for 3.5 miles, and the Access Area will be on the RIGHT.",-72.20560772,44.30420768,77,17,88
-73.1407,43.2931,97,Mettawee River,Rupert,Bennington,F&W,F&W,Fishing,N/A,None,No,Yes,Protected,Medium,"Spring, Summer, Fall",Light,No,No,No,No,No,Mettawee River,No,No,No,No,No,No,No,No,No,No,Yes,Yes,Yes,No,No,No,No,No,No,No,No,No,No,No,No,No,"Take US Route 7 to Manchester, then turn North onto VT Route 30.  Travel North on VT Route 30 for 11 miles and the Access Area will be on the LEFT.",-73.14068975,43.29310521,0,0,89
-72.1232,44.742,98,May Pond,Barton,Orleans,F&W,F&W,Boating/Fishing,Small,Gravel,No,Yes,Protected,Large,Spring-Summer,Light,No,No,No,No,No,May Pond,No,No,No,No,No,No,No,No,No,No,Yes,No,No,No,No,No,No,No,No,No,No,No,No,No,No,No,"Take Interstate 91 to Exit 25 in Barton.  Take VT Route 16 North through the town center, where it will become Willoughby Lake Rd, for 2.5 miles, then turn RIGHT onto May Pond Rd.  Travel East on May Pond Rd for  2 miles to the Access Area on the LEFT.",-72.12320971,44.7420133,116,31,90
-73.398,44.0245,99,Lake Champlain,Addison,Addison,F&W,F&W,Boating/Fishing,Medium,Gravel,No,Yes,West,Medium,Spring,Light,No,No,No,No,Yes,McCuen Slang,Yes,Yes,Yes,Yes,Yes,No,Yes,No,Yes,No,No,No,No,Yes,Yes,Yes,Yes,Yes,Yes,Yes,Yes,Yes,Yes,Yes,Yes,Yes,"Take US Route 7 into Middlebury, the turn West onto VT Route 125.  Travel West on VT Route 125 for  14.6 miles and the Access Area will be on the Left.",-73.397953,44.024523,172800,400,91
-72.4833,43.8274,100,McIntosh Pond,Royalton,Windsor,F&W,F&W,Boating/Fishing,Medium,Concrete Plank,No,Yes,Protected,Medium,Spring-Summer,Light,No,No,Yes,No,No,McIntosh Pond,No,No,No,No,No,No,No,No,No,No,Yes,No,Yes,No,No,No,No,No,No,No,No,No,Yes,No,No,No,"Take Interstate 89 to Exit 2 in Sharon.  Take VT Route 14 North for 4 miles, then turn RIGHT onto Dairy Hill.  Travel North on Dairy Hill for 1.5 miles then turn LEFT onto McIntosh Pond Rd, across from the Joseph Smith Memorial, and the Access Area will be on the LEFT.",-72.4833476,43.82739567,,,92
-71.7978,44.4461,101,Miles Pond,Concord,Essex,F&W,F&W,Boating/Fishing,Medium,Concrete Plank,No,Yes,Protected,Small,Spring,Light,No,No,No,No,No,Miles Pond,No,No,No,No,No,No,No,No,No,No,No,No,No,No,No,No,Yes,No,No,Yes,Yes,Yes,Yes,Yes,No,No,"Take Interstate 91 to Exit 21 in St. Johnsbury.  Take US Route 2 East for 17 miles, then turn RIGHT onto Beach Dr, followed by a RIGHT onto Campers Ln, and the Access Area will be on the RIGHT.",-71.79775644,44.44613564,206,55,93
-72.3099,43.8897,102,Miller Pond,Strafford,Orange,F&W,F&W,Boating/Fishing,Small,Concrete Plank,No,Yes,Protected,Small,Spring-Summer,Light,No,No,No,No,No,Miller Pond,No,No,No,No,No,No,No,No,No,No,Yes,No,Yes,No,No,No,No,No,No,No,Yes,No,No,Yes,No,No,"Take Interstate 91 to Exit 14 in Thetford.  Take VT Route 113 West for  2.5 miles, then turn LEFT onto Sawnee Bean Rd.  Travel North on Sawnee Bean Rd for 4 miles, then turn LEFT onto Miller Pond Rd.  Travel West on Miller Pond Rd for 0.5 miles, and the Access Area will be on the RIGHT.",-72.30988543,43.88969294,63,32,94
-72.4475,44.3913,103,Mirror Lake,Calais,Washington,F&W,F&W,Boating/Fishing,Small,Concrete Plank,No,Yes,Protected,Small,Spring,Moderate,No,No,Yes,No,No,Mirror Lake,No,No,No,No,No,No,No,No,No,No,No,No,Yes,Yes,No,Yes,Yes,No,No,Yes,No,Yes,Yes,Yes,No,No,"Take US Route 2 to Plainfield, then turn North onto VT Route 214.  Travel North on VT Route 214 for 2 miles, then turn RIGHT onto VT Route 14.  Travel North on VT Route 14 for  5 miles, then turn LEFT onto Moscow Woods Rd.  Travel North on Moscow Woods Rd for 2 miles, then turn RIGHT onto North Calais Rd.  Travel North on North Calais Rd for 0.5 miles, then turn LEFT onto #10 Pond Rd.  Travel North on #10 Pond Rd for  1/4 mile, and the Access Area will be on the RIGHT.",-72.44753888,44.39132128,86,106,95
-73.1062,44.9103,104,Missisquoi River,Swanton,Franklin,F&W,F&W,Boating/Fishing,Carry-on,None,No,Yes,Protected,Medium,Spring-Summer,Light,No,No,No,No,No,Babbie Access,No,No,No,No,No,No,No,No,No,No,No,No,No,No,No,No,Yes,Yes,Yes,No,No,Yes,Yes,Yes,No,No,"Take Interstate 89 to Exit 21 in Swanton.  Take VT Route 78 West, which turns into 1st St, through the village, and then turn LEFT onto Grand Avenue/Route 7 South.  The Access Area is on the LEFT immediately after the bridge crossing the Missisquoi River.",-73.10623198,44.91034027,0,,96
-73.1384,44.2498,105,Monkton Pond,Monkton,Addison,F&W,F&W,Boating/Fishing,Small,Concrete Plank,No,Yes,Protected,Small,All Year,Light,No,Yes,No,No,No,Monkton Pond,No,No,No,No,No,No,Yes,No,No,No,No,No,No,No,No,No,Yes,No,Yes,No,Yes,No,Yes,Yes,Yes,No,"Take US Route 7 to Ferrisburgh, then turn East onto Old Hollow Rd. Travel East on Old Hollow Rd, which becomes North Hollow Rd, for 5 miles, then turn LEFT onto Monkton Rd.  Follow Monkton Rd North, through Monkton Boro, for 1/4 mile, and at the fork veer left onto South Pond Rd.  Follow South Pond Rd for 1/2 mile and turn RIGHT on the Access Rd to reach the Access Area.",-73.13843957,44.24982501,114,13,97
-71.8685,44.4559,106,Moose River,Concord,Essex,F&W,F&W,Boating/Fishing,Carry-on,None,No,No,Protected,Small,Spring-Summer,Light,No,No,No,No,No,Moose River,No,No,No,No,No,No,No,No,No,No,Yes,Yes,No,No,No,No,No,No,No,No,No,No,No,No,No,No,Take Interstate 91 to exit 21 in St. Johnsbury.  Take US Route 2 East for 12 miles and the Access Area will be on the LEFT.,-71.86853,44.455944,0,0,98
-73.2691,44.9677,107,Mud Creek Pond,Alburg,Grand Isle,F&W,F&W,Fishing,N/A,None,Yes,Yes,Protected,Small,Spring-Summer,Moderate,No,No,No,No,No,Mud Creek Pond,Yes,Yes,No,No,No,No,No,No,No,No,No,No,No,No,No,No,Yes,No,Yes,Yes,Yes,No,Yes,Yes,Yes,No,"Take Interstate 89 to Exit 17, then head West on US Route 2 towards the Lake Champlain Islands.  Continue on US Route 2 for 32.5 miles to Alburg Center and the intersection with VT Route 78. Turn RIGHT onto VT Route 78 East.  Travel East for 1/2 mile and the Access Area will be on the RIGHT, just before the bridge crossing Mud Creek.",-73.26910843,44.96768683,318,0,99
-71.6912,44.4826,108,Neal Pond,Lunenburg,Essex,F&W,F&W,Boating/Fishing,Small,Gravel,No,Yes,North,Small,All Year,Light,No,Yes,No,No,No,Neal Pond,No,No,No,No,No,No,No,No,No,No,No,No,No,No,No,No,Yes,No,Yes,Yes,No,Yes,Yes,No,No,No,"Take US Route 2 to Lunenburg, then turn North onto Town Highway 34.  Travel North on Town Highway 34 for 1/2 mile, then turn LEFT onto Town Highway 15.  Travel West on Town Highway 15 for 1 mile, then turn RIGHT onto Town Highway 48 and continue to the Access Area.",-71.69121546,44.4825631,182,35,100
-72.4468,44.4098,109,Nelson Pond,Woodbury,Washington,F&W,F&W,Boating/Fishing,Small,Gravel,No,Yes,Protected,Medium,All Year,Light,No,Yes,Yes,No,No,Nelson Pond,No,No,No,No,No,No,No,No,No,No,No,Yes,Yes,Yes,No,No,Yes,No,No,Yes,No,Yes,Yes,Yes,No,No,"Take US Route 2 to Plainfield, then turn North onto VT Route 214.  Travel North on VT Route 214 for  2 miles, then turn RIGHT onto VT Route 14.  Travel North on VT Route 14 for 5 miles, then turn LEFT onto Moscow Woods Rd.  Travel North on Moscow Woods Rd for  2 miles, then turn RIGHT onto North Calais Rd.  Travel North on North Calais Rd for 1/2 mile, then turn LEFT onto #10 Pond Rd.  Travel North on #10 Pond Rd, which becomes Nelson Pond Rd, for 1.5 miles, and the Access Area will be on the RIGHT.",-72.44676382,44.40983636,125,97,101
-71.981,44.7231,110,Newark Pond,Newark,Caledonia,F&W,F&W,Boating/Fishing,Small,Gravel,No,Yes,Protected,Small,Spring-Summer,Light,No,No,No,No,No,Newark Pond,No,No,No,No,No,No,No,No,No,No,No,No,Yes,No,No,No,Yes,No,No,No,No,Yes,Yes,No,No,No,"Take Interstate 91 to Exit 23 for Lyndonville and follow US Route 5 North for  9.5 miles to the town of West Burke.  In West Burke turn RIGHT onto VT Route 5A North and travel for  3.5 miles to Long Pond Rd.  Turn RIGHT onto Long Pond Rd and travel North for 1.5 miles, then turn RIGHT onto Newark Pond Rd.  Travel North on Newark Pond Rd for 1 mile and the Access Area will be on the RIGHT.",-71.98095229,44.72314175,163,31,102
-73.2717,44.8853,111,Lake Champlain,North Hero,Grand Isle,F&W,F&W,Fishing,N/A,None,Yes,Yes,North,Small,"Spring, Summer, Fall",Light,No,No,No,No,Yes,North Hero Causeway,No,No,No,No,No,No,Yes,No,No,No,No,No,No,No,No,No,Yes,Yes,Yes,Yes,Yes,Yes,Yes,Yes,Yes,No,"Take Interstate 89 to Exit 17 in Colchester.  Off the Exit follow US Route 2 West towards the Lake Champlain Islands for 21.3 miles to the town of North Hero.  From North Hero continue heading West for 5 miles to the Alburg/North Hero Bridge.  Just before the bridge veer RIGHT onto Bridge R.  Access is on the North, just off Bridge Rd.",-73.27173891,44.88532478,172800,400,103
-72.4464,44.3061,112,North Montpelier Pond,E. Montpelier,Washington,F&W,F&W,Boating/Fishing,Small,Gravel,No,Yes,Protected,Small,Spring-Summer,Light,No,No,No,No,No,North Montpelier Pond,No,No,No,No,No,No,No,No,No,No,No,No,No,No,No,No,Yes,No,No,Yes,Yes,No,Yes,Yes,No,No,"Take Interstate 89 to Exit 8 in Montpelier.  Off of the Exit, follow US Route 2 East for 7.8 miles to East Montpelier, then turn LEFT onto VT Route 14 North.  Travel North on VT Route 14 for 3 miles to the Access Area on the RIGHT.",-72.44644198,44.30611573,72,12,104
-72.1835,43.8413,113,Connecticut River,Thetford,Orange,F&W,F&W,Boating/Fishing,Medium,Concrete Plank,No,Yes,Protected,Medium,"Summer, Fall",Light,No,No,No,No,No,North Thetford,No,No,No,No,No,No,No,No,No,No,No,Yes,Yes,No,No,No,Yes,Yes,Yes,Yes,Yes,Yes,Yes,Yes,No,No,"Take Interstate 91 to Exit 14 in Thetford.  Take VT Route 113 East for 1.5 miles, then turn LEFT onto US Route 5.  Travel North on US Route 5 for 2 miles to Bridge Rd.  Turn RIGHT on Bridge Rd and follow to the Access Area.",-72.18350169,43.84133846,0,0,105
-71.8714,44.924,114,Norton Pond,Warrens Gore,Essex,F&W,F&W,Boating/Fishing,Medium,Concrete Plank,No,Yes,Protected,Medium,All Year,Light,No,Yes,Yes,No,No,Norton Pond,No,No,No,No,No,No,No,No,No,No,No,No,No,No,No,No,Yes,No,Yes,No,Yes,Yes,Yes,No,No,No,"Take Interstate 91 to Exit 28 in Derby.  Off the Exit follow US Route 5 North for  1 mile, then turn RIGHT onto VT Route 105 East.  Travel East for 1/2 miles, then turn LEFT onto VT Route 111 East.  Travel East for 15 miles, then turn LEFT onto VT Route 114 North.  Travel North for  6 miles and the Access Area will be on the LEFT.",-71.87136541,44.9240155,583,30,106
-72.5361,42.8932,115,Connecticut River,Brattleboro,Windham,F&W,F&W,Boating/Fishing,Medium,Concrete,No,Yes,Protected,Large,"Spring, Summer, Fall",Heavy,No,No,No,No,No,Old Ferry Road,No,No,No,No,No,No,No,No,No,No,No,No,No,No,No,No,Yes,Yes,Yes,Yes,Yes,Yes,Yes,Yes,Yes,No,"Take Interstate 91 to Exit 3 in Brattleboro.  Take US Route 5 North for 1/2 mile, then turn RIGHT onto Old Ferry Rd.  Take Old Ferry Rd for 1 mile to the Access Area.",-72.53611041,42.89315387,0,0,107
-72.2309,43.7554,116,Ompompanoosuc River,Norwich,Windsor,F&W,F&W,Boating/Fishing,Small,Gravel,No,Yes,Protected,Small,Spring-Summer,Light,No,No,No,No,No,Ompompanoosuc River,No,No,No,No,No,No,No,No,No,No,No,No,No,No,No,No,Yes,Yes,Yes,Yes,Yes,Yes,Yes,Yes,No,No,"Take Interstate 91 to Exit 13 in Norwich.  Take US Route 5 North for  6 miles.  After crossing a bridge over the river, turn LEFT onto Old Bridge Rd and the Access Area will be on the LEFT.",-72.23086518,43.7554051,0,0,108
-73.1552,43.8099,117,Otter Creek,Sudbury,Rutland,F&W,F&W,Boating/Fishing,Small,Gravel,No,No,Protected,Medium,"Spring, Summer, Fall",Light,No,No,No,No,No,Otter Creek (Sudbury),No,Yes,No,No,No,No,No,No,No,No,No,No,No,No,No,No,Yes,No,Yes,No,Yes,Yes,Yes,Yes,Yes,No,"Take US Route 7 to Brandon, then turn onto VT Route 73 West.  Travel West on VT Route 73 for 3.5 miles and the Access Area will be on the LEFT.",-73.15521231,43.80990896,0,0,109
-73.247,44.0861,118,Otter Creek,Pittsford,Rutland,F&W,F&W,Boating/Fishing,Carry-on,None,No,No,Protected,N/A,Spring-Summer,Light,No,No,No,No,No,Kingsley Access,No,Yes,Yes,No,Yes,Yes,Yes,No,Yes,No,No,Yes,No,Yes,Yes,Yes,Yes,Yes,Yes,Yes,Yes,Yes,Yes,Yes,Yes,Yes,,-73.24699,44.086126,0,0,110
-72.2654,44.3336,119,Peacham Pond,Peacham,Caledonia,F&W,F&W,Boating/Fishing,Medium,Gravel,No,Yes,Protected,Small,All Year,Light,No,Yes,Yes,No,No,Peacham Pond,No,No,No,No,No,No,No,No,No,No,No,Yes,No,No,No,Yes,Yes,No,No,No,No,No,Yes,Yes,No,No,"Take Interstate 89 to Exit 8 for Montpelier.  Off the Exit follow US Route 2 East for 19 miles, just past Marshfield to VT Route 232.  Turn RIGHT onto VT Route 232 South and continue for 3 miles to Peacham Pond Rd.  Turn LEFT onto Peacham Pond Rd and travel East for 1 mile to the Access Area on the RIGHT.",-72.26543675,44.33356782,331,61,111
-72.0524,44.8774,121,Pensioner Pond,Charleston,Orleans,F&W,F&W,Boating/Fishing,Small,Gravel,No,Yes,South,Small,All Year,Light,No,No,No,No,No,Pensioner Pond,No,No,No,No,No,No,No,No,No,No,Yes,No,No,No,No,No,Yes,No,No,Yes,No,Yes,Yes,No,No,No,"Take Interstate 91 to Exit 28 in Derby.  Take US Route 5 North for 1 mile, then turn RIGHT onto VT Route 105 East.  Trave East for  7 miles, and the Access Area will be on the RIGHT.",-72.05244342,44.87738328,170,39,112
-73.2816,43.7489,122,Perch Pond,Benson,Rutland,F&W,F&W,Boating/Fishing,Carry-on,None,No,No,Protected,Small,Spring-Summer,Light,No,No,No,No,No,Perch Pond,No,No,No,No,No,No,No,No,No,No,No,No,No,No,No,No,Yes,No,No,No,Yes,No,Yes,Yes,No,No,"Take US Route 7 to Brandon, then turn onto VT Route 73 West.  Travel West for 12 miles, then turn LEFT onto VT Route 22A South.  Travel South for 4.5 miles, then turn LEFT onto Perch Pond Rd.  Travel East on Perch Pond Rd for 1.5 miles.",-73.281604,43.748897,24,,113
-72.5209,42.9617,123,Connecticut River,Putney,Windham,F&W,F&W,Boating/Fishing,Small,Concrete,No,Yes,"North, South",Small,"Spring, Summer, Fall",Light,No,No,No,No,No,Putney Landing,No,No,No,No,No,No,No,No,No,No,No,No,No,No,No,No,Yes,Yes,Yes,Yes,Yes,Yes,Yes,Yes,No,No,"Take Interstate 91 to Exit 4 in Putney.  If travelling North on Interstate 91, turn RIGHT at the end of the Exit ramp and take Putney Landing Rd to the Access Area.  If travelling South on Interstate 91, merge onto US Route 5 heading North at the end of the Exit ramp.  Travel North for 1/4 mile and turn RIGHT onto the Putney State Highway, following signs for 91 North.  Drive straight, passing the Interstate Access ramps and onto Putney Landing Rd which leads to the Access Area.",-72.52087547,42.96166977,0,0,114
-73.0281,42.8906,124,Red Mill Pond,Woodford,Bennington,F&W,F&W,Boating/Fishing,Small,Gravel,No,Yes,Protected,Small,Trout Season Only,Light,No,No,No,No,No,Red Mill Pond,No,No,No,No,No,No,No,No,No,No,Yes,No,No,No,No,No,No,No,No,No,No,No,No,No,No,No,Take Interstate 91 to Exit 2 in Brattleboro.  Off the Exit follow VT Route 9 West for 34 miles. Turn LEFT at the sign for Woodford State Park and follow to the Access Area.,-73.02805518,42.89061271,20,,115
-73.2352,42.932,125,Lake Paran,N. Bennington,Bennington,AOT,F&W,Boating/Fishing,Small,Concrete,Yes,Yes,West,Medium,All Year,Light,No,Yes,No,No,No,Lake Paran,No,No,No,No,No,No,No,No,No,No,Yes,Yes,Yes,No,No,No,Yes,No,No,No,Yes,No,Yes,Yes,No,No,"Take US Route 7 towards Bennington and take Exit 2 for VT Route 7A.  Travel North on 7A for 1/4 mile, then turn LEFT onto Overlea Rd. Continue on Overlea Rd, which becomes Mechanic St, for 1 mile, then turn RIGHT onto North St, followed by a quick RIGHT onto the Fishing Access Rd.  Continue on the Fishing Access Rd to the Access Area at the end.",-73.23517427,42.93202387,40,23,116
-72.617,43.8369,126,Ansel Pond,Bethel,Windsor,F&W,F&W,Boating/Fishing,Carry-on,None,No,Yes,Protected,Small,Spring-Summer,Light,No,No,No,No,No,Ansel Pond,No,No,No,No,No,No,No,No,No,No,Yes,No,No,No,No,No,No,No,No,No,No,No,No,Yes,No,No,"From Interstate 89 take Exit 3 and head West on VT Route 107 for 2 miles.  Turn RIGHT on Christian Hill Rd (TH #85) just after crossing the Bethel Town Line.  Proceed approx. 1 mile, turn left on to Sanders Rd., and the entrance to the Ansel Pond Access area will be on the LEFT.",-72.61704802,43.83691768,10,,117
-72.6347,44.0698,128,Baker Pond,Brookfield,Orange,F&W,F&W,Boating/Fishing,Small,Gravel,No,Yes,North,Medium,"Spring, Summer, Fall",Light,No,No,Yes,No,No,Baker Pond (Brookfield),No,No,No,No,No,No,No,No,No,No,Yes,No,No,No,No,No,Yes,No,No,No,Yes,No,Yes,Yes,No,No,Take Interstate 89 to Exit 5 and head West on VT Route 64 for 2.5 miles to the intersection with VT Route 12.  Turn LEFT and head South on VT Route 12 for  4.1 miles past Baker Pond Rd and the Access Area will be on the right.,-72.63465014,44.0698231,35,10,118
-71.9736,44.7365,129,Bald Hill Pond,Westmore,Orleans,F&W,F&W,Boating/Fishing,Medium,Gravel,No,Yes,North,Small,Spring-Summer,Light,No,No,No,No,No,Bald Hill Pond,No,No,No,No,No,No,No,No,No,No,No,No,Yes,No,No,No,No,No,No,No,No,No,No,No,No,No,Take Interstate 91 to Exit 25 in Barton.  Proceed East onto VT Route 16 for .2 miles and turn RIGHT onto US Route 5 South.  Follow Route 5 South for 11 miles to VT Route 5A in West Burke.  Turn LEFT onto VT Route 5A proceeding 3.5 miles North to Neward Pond Rd.  Bear RIGHT on Newark Pond Road and proceed  3.0 miles to Bald Hill Pond Rd.  Turn LEFT on Bald Hill Pond Rd and continue for 1/4 mile to Bald Hill Ln.  Turn LEFT on Bald Hill Ln and follow to the Access Area at the end.,-71.973617,44.736458,104,42,119
-72.203,44.8168,130,Willoughby River,Barton,Orleans,F&W,F&W,Fishing,Carry-on,None,No,Yes,Protected,Small,Spring-Summer,Light,No,No,No,No,No,Indian Pioneer Point,No,No,No,No,No,No,No,No,No,No,No,No,Yes,No,No,No,No,No,No,No,No,No,No,No,No,No,"Take Interstate 91 to Exit 26 in Orleans.  Head South on US Route 5 to VT Route 58 West and continue for 1/4 mile to the center of Orlean village.  After crossing the railroad track and the river, turn LEFT onto Maple St.  Travel 1/2 mile and the Access Area will be on the RIGHT.",-72.203033,44.81679,0,0,120
-73.2584,43.106,131,Batten Kill,Arlington,Bennington,F&W,F&W,Boating/Fishing,Carry-on,None,No,Yes,Protected,Small,Trout Season Only,Light,No,No,No,No,No,Red Mill,No,No,No,No,No,No,No,No,No,No,Yes,Yes,No,No,No,No,No,No,No,No,No,No,No,No,No,No,"Take US Route 7 to Exit 3 in Sunderland and follow VT Route 313 West for 1.8 miles.  Turn Right onto Vermont Roue 7A proceeding North toward Arlington for 1.4 miles.  Turn LEFT, continuing on VT Route 313/Batten Kill Drive for 0.4 miles. Turn LEFT on Battenkill Lane which leads to the Access Area.",-73.258426,43.105997,0,0,121
-72.0825,44.696,132,Bean Pond,Sutton,Caledonia,F&W,F&W,Boating/Fishing,Small,Gravel,No,No,Protected,N/A,Spring-Summer,Light,No,No,No,No,No,Bean Pond,No,No,No,No,No,No,No,No,No,No,Yes,No,No,No,No,No,No,No,No,No,No,No,Yes,Yes,No,No,"Take Interstate 91 to Exit 24 in Lyndon Center.  Turn onto VT Route 122 West for one mile.  Turn LEFT onto Hubbard Hill Rd and continue for 1 mile.  Turn LEFT onto Fall Brook Rd and continue for 1.2 miles.  Turn RIGHT onto Bean Pond Rd and follow for 1/2 mile, then turn LEFT onto Lodge Lane and follow to the Access Area.",-72.082528,44.695964,30,,122
-72.9834,43.511,133,Otter Creek,Clarendon,Rutland,F&W,F&W,Boating/Fishing,Carry-on,None,No,Yes,,Small,Spring-Summer,Light,No,No,No,No,No,Otter Creek (Clarendon),No,No,No,No,No,No,No,No,No,No,Yes,No,No,No,No,No,Yes,No,No,No,No,No,No,No,No,No,Take Interstate 89 to Exit 1 and head West on US Route 4 towards Killington for 33 miles.  After crossing the Mendon Town line look for the Beaver Pond access directly off US Route 4 on the RIGHT.,-72.9834,43.51095,10,,123
-73.3673,43.7284,136,Lake Champlain,Benson,Rutland,F&W,F&W,Boating/Fishing,Medium,Concrete,No,Yes,Northwest,Small,All Year,Heavy,Yes,Yes,Yes,Yes,No,Benson Landing,Yes,Yes,Yes,Yes,Yes,No,Yes,No,Yes,No,No,No,No,No,No,No,Yes,Yes,Yes,Yes,Yes,Yes,Yes,Yes,Yes,No,"Take Us Route 7 to Brandon, then head West on VT Route 73 for 13.3 miles to VT Route 22A in Orwell.  Turn LEFT onto Vermont Route 22A and head South for 6.2 miles to Benson.  Look for Hulett Hill Rd on the West side of 22A (Across from Benson Rd).  Turn RIGHT and head West on Hulett Hill Rd for 0.6 miles to Stage Rd.  Turn LEFT on Stage Rd and continue for 0.10 miles to Old North Lake Rd.  Turn RIGHT onto Old North Lake Rd and continue for 1.3 miles.  At the fork bear RIGHT, staying on Old North Lake Rd.  Travel another 2 miles, then turn left onto TH-6.  Continue for 0.3 miles and the Access Area will be on the LEFT.",-73.36728745,43.72843936,172800,400,124
-72.0988,44.9209,137,Big Salem Lake,Derby,Orleans,F&W,F&W,Boating/Fishing,Medium,Concrete,No,Yes,Northwest,Medium,All Year,Light,Yes,Yes,Yes,Yes,No,David H Wood,No,No,No,No,No,No,No,No,No,No,No,Yes,No,No,Yes,Yes,Yes,Yes,No,Yes,Yes,Yes,Yes,Yes,No,Yes,"Take Interstate 91 to Exit 28 in Derby.  Turn onto US Route 5 North and continue for 1 mile to the intersection of VT Route 105.  Head South on VT 105/VT 5A for 3.3 miles, travelling along the west side of Big Salem Lake.  At the south end of the lake, turn LEFT onto Haywood Rd.  Travel approximately 0.25 miles and the access area drive will be on the LEFT, just past the cemetery.",-72.09877096,44.92088857,788,70,125
-73.2277,43.7042,138,Black Pond,Hubbardton,Rutland,F&W,F&W,Boating/Fishing,Small,Gravel,No,No,Protected,N/A,Spring-Summer,,No,No,No,No,No,Black Pond,No,No,No,No,No,No,No,No,No,No,No,No,Yes,No,No,No,Yes,No,No,No,Yes,No,No,Yes,Yes,No,"Take US Route 4 or US Route 7 to Rutland, then head West on US Route 4 for approximately 13 miles to Exit 4.  Take Exit 4 for Vermont Route 30 North to Hubbardton.  Continue on VT 30 for 7.1 miles throughh the town of Hubbardton, then turn left onto Hortonia Rd. Travel 1.5 miles past Breeze Pond to Black Pond.  The Access Area is near the southern end of the pond.",-73.22773,43.704172,20,45,126
-73.2152,43.7158,139,Breese Pond,Hubbardton,Rutland,F&W,F&W,Boating/Fishing,Carry-on,None,No,No,Protected,N/A,Spring-Summer,,No,No,No,No,No,Breese Pond,No,No,No,No,No,No,No,No,No,No,No,No,No,No,No,No,Yes,No,Yes,No,Yes,No,Yes,Yes,Yes,No,"Take US Route 4 or US Route 7 to Rutland, then head West on US Route 4 for approximately 13 miles.  Take Exit 4 onto VT Route 30 North towards Hubbardton.  Continue on VT Route 30 for 7.1 miles through the town of Hubbardton and turn left onto Hortinia Rd.  Proceed West for 1.7 miles, then turn LEFT onto Black Pond Rd. Travil 0.1 miles to the Access Area on the LEFT.",-73.215244,43.715785,5,,127
-73.2532,43.8602,141,Richville Pond,Shoreham,Addison,F&W,F&W,Fishing,N/A,None,No,No,,Small,Spring-Summer,Light,No,No,No,No,No,Richville Covered Bridge,No,No,No,No,No,No,No,No,No,No,No,No,No,No,No,No,Yes,No,Yes,No,Yes,No,Yes,Yes,Yes,No,"Take US Route 7 to Middlebury, then turn onto VT Route 30 South.  Travel South on VT Route 30 for 10 miles, then turn RIGHT onto Shoreham-Whiting Rd.  Drive West on Shoreham-Whiting Rd. for 1.5 miles, through East Shoreham, and turn LEFT onto Shoreham Depot Rd.  Travel South on Shoreham Depot Rd for 1/2 mile.  Just before Richville pond, at the intersection of Dame Road and Shoreham Depot Rd, veer RIGHT onto the small road which leads to the Access Area by the covered bridge.",-73.253239,43.860232,124,8,128
-73.0886,44.9885,142,Lake Champlain,Highgate,Franklin,F&W,F&W,Boating/Fishing,Small,Gravel,No,Yes,Protected,Small,Spring,Light,No,Yes,No,No,No,Rock River,Yes,Yes,Yes,No,Yes,No,Yes,No,Yes,No,No,No,No,No,No,No,Yes,Yes,Yes,Yes,Yes,Yes,Yes,Yes,Yes,No,"Take Interstate 89 to Exit 22 in Highgate.  Take US Route 7 South for 1.5 miles, and the Access Area will be on the LEFT.",-73.08862483,44.98850026,0,0,129
-72.5882,44.0779,143,Rood Pond,Williamstown,Orange,F&W,F&W,Boating/Fishing,Small,Concrete Plank,Yes,Yes,Southeast,Small,All Year,Light,No,Yes,Yes,No,No,Rood Pond,No,No,No,No,No,No,No,No,No,No,Yes,No,No,No,No,No,Yes,No,No,No,Yes,No,Yes,No,No,No,"Take Interstate 89 to Exit 5 in Willamstown.  Off the Exit, take VT Route 64 East for2.5 miles, then turn RIGHT onto Rood Pond Rd.  Travel South on Rood Pond Rd for 3 miles and the Access Area will be on the LEFT.",-72.58818801,44.07786076,23,52,130
-73.3395,44.9988,144,Lake Champlain,Alburg,Grand Isle,F&W,F&W,Fishing,N/A,None,Yes,Yes,"North, West",Large,All Year,Light,No,Yes,No,No,No,Korean War Veterans Access,Yes,No,No,No,No,No,Yes,No,No,No,No,No,No,No,No,No,Yes,Yes,Yes,Yes,Yes,Yes,Yes,Yes,Yes,No,Take Interstate 89 to Exit 17 in Colchester.  Off the Exit follow US Route 2 West towards the Lake Champlain Islands.  Travel West for 34.6 miles to Alburg Village.  After Alburg Village continue travelling West on US Route 2 for  2 miles to the bridge crossing Lake Champlain.  The Access Area will be on the RIGHT just before the bridge.,-73.33953982,44.99876519,172800,400,131
-73.1723,44.7946,145,Lake Champlain,Saint Albans,Franklin,F&W,F&W,Boating/Fishing,Large,Concrete,No,Yes,Protected,Large,All Year,Heavy,Yes,Yes,Yes,Yes,No,Saint Albans Bay,No,Yes,No,No,No,No,Yes,No,No,No,No,Yes,Yes,Yes,Yes,Yes,Yes,Yes,Yes,Yes,Yes,Yes,Yes,Yes,Yes,No,"Take Interstate 89 to Exit 19 for St. Albans.  Off the Exit turn RIGHT onto VT Route 104/Fairfax Rd.  Travel North for 1/4 mile then turn LEFT onto VT Route 36/Fairfield St.  Travel West on VT Route 36 for 4 miles, the turn LEFT onto Hathaway Point Rd.  Travel South on Hathaway Point Rd for 2 miles, and the Access Area will be on the LEFT.",-73.17228346,44.79459693,172800,400,132
-73.2136,44.6233,146,Lake Champlain,Milton,Chittenden,F&W,F&W,Fishing,N/A,None,No,Yes,Protected,Small,Spring,Light,No,No,No,No,No,Sand Bar Refuge,Yes,Yes,Yes,No,No,No,Yes,No,Yes,No,No,Yes,No,No,Yes,No,Yes,Yes,Yes,Yes,Yes,Yes,Yes,Yes,Yes,No,Take Interstate 89 to Exit 17 in Colchester.  Off the exit take US Route 2 West towards the Lake Champlain Islands.  Travel West for 4 miles towards Sandbar State Park.  The Access Area will be on the RIGHT before the bridge to South Hero.,-73.213641,44.623308,0,0,133
-73.2052,44.604,147,Lamoille River,Milton,Chittenden,F&W,F&W,Fishing,N/A,None,Yes,Yes,Protected,Medium,Spring-Summer,Light,No,No,Yes,No,No,Sears,No,No,Yes,No,No,No,Yes,No,Yes,No,No,Yes,No,No,Yes,No,Yes,Yes,Yes,Yes,Yes,Yes,Yes,Yes,No,No,"Take Interstate 89 to Exit 17 in Colchester.  Take US Route 2 West for 2.5 miles, then turn LEFT onto Cub Rd, followed by a LEFT onto Gravelle Rd, then an immediate RIGHT onto the Access Rd which leads to the Access Area.",-73.20516507,44.60403271,0,0,134
-71.982,44.9104,149,Seymour Lake,Morgan,Orleans,F&W,F&W,Boating/Fishing,Large,Concrete,No,Yes,South,Large,All Year,Heavy,Yes,Yes,Yes,Yes,No,Seymour Lake,No,No,No,No,No,No,No,No,No,No,No,Yes,No,Yes,Yes,Yes,Yes,No,No,Yes,No,Yes,No,No,No,Yes,"Take Interstate 91 to Exit 28 in Derby.  Off the Exit travel North on US Route 5 for 1/2 mile, then turn RIGHT onto VT Route 105, followed by an immediate LEFT onto VT Route 111 East.  Follow VT Route 111 East for 10 miles.  The Access Area will be on the RIGHT just past the intersection with Valley Rd.",-71.98196928,44.91044937,1777,167,135
-71.8694,44.4058,150,Shadow Lake-Concord,Concord,Essex,F&W,F&W,Boating/Fishing,Small,Concrete Plank,No,Yes,South,Small,All Year,Light,No,No,No,No,No,Shadow Lake (Concord),No,No,No,No,No,No,No,No,No,No,No,No,No,No,No,No,Yes,No,No,Yes,No,Yes,Yes,No,No,No,"Take Interstate 91 to Exit 25 in Barton.  Off the Exit take VT Route 16 South for  5 miles, then turn RIGHT onto Shadow Lake Rd.  Travel West on Shadow Lake Rd for 1.5 miles, and the Access Area will be on the RIGHT.",-71.86944681,44.40584278,114,55,136
-72.2206,44.6637,151,Shadow Lake-Glover,Glover,Orleans,F&W,F&W,Boating/Fishing,Medium,Concrete,No,Yes,Protected,Small,All Year,Light,No,Yes,Yes,No,No,Shadow Lake (Glover),No,No,No,No,No,No,No,No,No,No,No,No,Yes,Yes,No,No,Yes,No,No,Yes,No,Yes,Yes,No,No,No,"Take Interstate 91 to Exit 25 in Barton.  Off the Exit take VT Route 16 South for  5 Miles then turn RIGHT onto Shadow Lake Rd.  Travel West on Shadow Lake Rd for 1.5 miles, and the Access Area will be on the RIGHT.",-72.22058738,44.66371003,199,139,137
-73.2348,44.3994,152,Lake Champlain,Shelburne,Chittenden,Lease,F&W,Boating/Fishing,Medium,Concrete,No,Yes,North,Small,Spring-Summer,Moderate,Yes,Yes,Yes,Yes,No,Shelburne Bay,No,No,No,No,No,No,Yes,No,Yes,No,No,Yes,Yes,Yes,Yes,Yes,Yes,Yes,Yes,No,Yes,Yes,Yes,Yes,Yes,No,"Take US Route 7 to Shelburne, then turn West onto Bay Road.  Travel West on Bay Road for 1 mile, and the Access Area will be on the RIGHT.",-73.23484284,44.39943429,172800,400,138
-73.1622,44.3771,153,Shelburne Pond,Shelburne,Chittenden,F&W,F&W,Boating/Fishing,Medium,Gravel,No,Yes,North,Medium,All Year,Moderate,No,Yes,No,No,No,Shelburne Pond,No,No,No,No,No,No,No,No,No,No,No,No,No,No,No,No,Yes,No,Yes,No,Yes,No,Yes,Yes,Yes,No,"Take Interstate 89 to Exit 12 in Williston.  Off the Exit take VT Route 2A South for 5 miles, then turn RIGHT onto VT Route 116 North.  Travel North for 3/4 of a mile, then turn LEFT onto Pond Rd.  Travel West on Pond Rd for 1.5 miles, then turn RIGHT onto Pond Access Rd and continue to the Access Area.",-73.16222524,44.37710728,450,25,139
-73.3429,43.7643,154,Lake Champlain,Orwell,Addison,F&W,F&W,Boating/Fishing,Medium,Gravel,No,Yes,Southwest,Medium,All Year,Moderate,No,Yes,No,Yes,No,George Davis (Singing Cedars),Yes,Yes,Yes,Yes,Yes,No,Yes,No,Yes,No,No,No,No,No,No,No,Yes,Yes,Yes,Yes,Yes,Yes,Yes,Yes,Yes,No,"Take US Route 4 to exit 2 for Fair Haven.  Off the Exit follow VT Route 22A North.  Travel North for 11 miles, then turn LEFT onto North Cross Rd.  Travel West on North Cross Rd for 1/2 mile, then turn RIGHT onto Stage Rd.  Travel North on Stage Rd for 1/2 mile, then turn LEFT onto Singing Cedars Rd.  Travel West on Singing Cedars Rd for 2 miles to the Access Area.",-73.34285096,43.76429515,172800,400,140
-72.213,44.9291,155,Lake Memphremagog,Newport City,Orleans,Lease,F&W,Boating/Fishing,Medium,Concrete,No,Yes,South,Large,All Year,Moderate,Yes,Yes,No,No,No,South Bay,No,Yes,No,No,No,No,No,No,No,No,No,No,Yes,No,No,Yes,Yes,Yes,Yes,Yes,Yes,Yes,Yes,Yes,No,No,Take Interstate 91 to Exit 28 in Derby Center.  Off the Exit follow US Route 5 South for 4.5 miles to Newport.  In Newport turn LEFT onto Coventry St and continue for 1/2 mile to the Access Area on the RIGHT.,-72.21304121,44.92908299,6317,351,141
-72.7099,42.8465,156,South Pond,Marlboro,Windham,F&W,F&W,Boating/Fishing,Medium,Concrete Plank,No,Yes,West,Small,Trout Season Only,Light,No,No,No,No,No,South Pond,No,No,No,No,No,No,No,No,No,No,No,Yes,Yes,No,No,No,No,No,No,No,No,No,No,No,No,No,"Take Interstate 91 to Exit 2 in Brattleboro.  Off the Exit take VT Route 9 West for 1.5 mile, then turn LEFT onto Greenleaf Rd.  Travel West on Greenleaf Rd, then veer RIGHT at the fork onto Abbott Rd, and continue driving as Abbot Rd becomes Ames Hill Rd.  Travel for 5 miles, then turn LEFT onto South Pond Rd.  Travel South on South Pond Rd for 1 mile to the Access Area.",-72.70985883,42.84646793,68,35,142
-73.2776,44.2265,157,Little Otter Creek,Ferrisburg,Addison,F&W,F&W,Boating/Fishing,Medium,Concrete Plank,No,Yes,Protected,Medium,Spring,Light,No,No,No,No,Yes,South Slang,Yes,Yes,No,No,Yes,No,Yes,No,No,No,No,No,No,No,No,No,Yes,No,Yes,Yes,Yes,Yes,Yes,Yes,Yes,No,"Take US Route 7 to Ferrisburgh, then turn West onto Little Chicago Rd.  Travel West for 1 mile, then turn RIGHT onto Hawkins Rd.  Travel North on Hawkins Rd for 2 miles and the Access Area will be on the RIGHT.",-73.27756336,44.22649359,0,0,143
-73.1774,42.8112,158,South Stream,Pownal,Bennington,F&W,F&W,Boating/Fishing,Carry-on,None,No,No,,Medium,Spring,Light,No,No,No,No,No,South Stream,No,No,No,No,No,No,No,No,No,No,No,No,No,No,No,No,No,No,No,Yes,No,No,Yes,Yes,No,No,"Take US Route 7 to Pownal, then turn East onto Barber Pond Rd.  Travel East on Barber Pond Rd, which becomes South Stream Rd, for 5 miles.  The Access Area is on the LEFT across from the intersection of Watershed Rd and South Stream Rd.",-73.1774331,42.81116801,0,0,144
-71.8553,44.8042,159,Spectacle Pond,Brighton,Essex,F&W,F&W,Boating/Fishing,Small,Concrete Plank,No,Yes,North,Medium,All Year,Light,No,No,No,No,No,Spectacle Pond,No,No,No,No,No,No,No,No,No,No,No,Yes,No,No,No,No,Yes,No,No,Yes,Yes,Yes,Yes,Yes,No,No,"Take Interstate 91 to Exit 28 in Derby.  Off the Exit, take US Route 5 North for  1 mile, then turn RIGHT onto VT Route 105.  Travel East on VT Route 105 for  20 miles, through the town of Island Pond, then turn RIGHT onto Lakeshore Drive, followed by another quick LEFT onto Fishing Village Rd.  The access Area will be off of Fishing Village Rd on the LEFT.",-71.85533046,44.80417795,102,15,145
-73.2328,44.8949,160,Lake Champlain,North Hero,Grand Isle,F&W,F&W,Boating/Fishing,Medium,Concrete,No,Yes,North,Medium,All Year,Light,Yes,Yes,No,No,Yes,Stephensen Point,Yes,No,No,No,No,No,Yes,No,Yes,No,No,Yes,No,No,Yes,No,Yes,Yes,Yes,Yes,Yes,Yes,Yes,Yes,Yes,No,"Take Interstate 89 to Exit 17 in Colchester.  Off the Exit follow US Route 2 West towards the Lake Champlain Islands.  Travel West for 25 miles, through the town of North Hero, then turn RIGHT onto Lakeview Dr.  Travel North on Lakeview Dr for 2.5 miles, then turn RIGHT onto North End Rd and continue to the Access Area.",-73.23279685,44.89489431,172800,400,146
-73.3588,44.8715,161,Lake Champlain,Isle La Motte,Grand Isle,F&W,F&W,Boating/Fishing,Small,Gravel/Shale,No,Yes,"Southwest, North",Small,All Year,Light,No,Yes,No,No,Yes,Stoney Point,Yes,No,No,No,No,No,Yes,No,Yes,No,No,Yes,No,Yes,Yes,No,Yes,Yes,Yes,Yes,Yes,Yes,Yes,Yes,No,No,"Take Interstate 89 to Exit 17 in Colchester.  Take US Route 2 West for 27 miles, then turn LEFT onto VT Route 129 West.  Travel West for 3 miles, then cross the bridge to Isle La Motte and turn LEFT onto Main St.  Travel South on Main St for 2 miles, then turn RIGHT onto School St.  Travel West on School St for  1 mile, then turn LEFT onto West Shore Rd.  Travel South on West Shore Rd for 1 mile, and the Access Area will be on the RIGHT.",-73.35882936,44.87147669,172800,400,147
-73.2149,44.9254,163,Lake Champlain,Swanton,Franklin,F&W,F&W,Boating/Fishing,Medium,Concrete,No,Yes,Southwest,Large,All Year,Moderate,No,Yes,No,No,Yes,Tabor Point,Yes,No,Yes,No,No,No,Yes,No,Yes,No,No,Yes,No,No,Yes,Yes,Yes,Yes,Yes,Yes,Yes,Yes,Yes,Yes,Yes,No,"Take Interstate 89 to Exit 21 in Swanton.  Off the Exit, take VT Route 78 West for  6.5 miles, then turn LEFT onto Tabor Rd.  Travel South onto Tabor Rd for  2.5 miles, then turn LEFT onto Champlain St, followed by a quick RIGHT onto Hog Island Rd.  Travel South on Hog Iland Rd for 1 mile, and the Access Area will be on the RIGHT.",-73.21488219,44.925375,172800,400,148
-72.097,44.192,165,Ticklenaked Pond,Ryegate,Caledonia,F&W,F&W,Boating/Fishing,Small,Gravel,No,Yes,South,Small,All Year,Light,No,No,No,No,No,Ticklenaked Pond,No,No,No,No,No,No,No,No,No,No,No,No,No,No,No,No,Yes,No,No,Yes,Yes,Yes,Yes,Yes,No,No,"Take Interstate 91 to Exit 17 in Newbury.  Take US Route 302 West for  1 mile, then turn RIGHT onto Boltonville Rd.  Travel North on Boltonville Rd for  2 miles, then turn LEFT onto Ticklenaked Pond Rd, and continue to the Access Area on the LEFT.",-72.09695482,44.19202067,48,51,149
-72.4471,44.4436,167,Valley Lake,Woodbury,Washington,F&W,F&W,Boating/Fishing,Small,Gravel,No,Yes,Protected,Small,Spring-Summer,Light,No,No,No,No,No,Valley Lake,No,No,No,No,No,No,No,No,No,No,No,No,No,No,No,No,Yes,No,No,Yes,No,Yes,Yes,Yes,No,No,"Take Interstate 89 to Exit 8 in Montpelier. Off the Exit follow Memorial Drive, which become US Route 2 East, for 3/4 of a mile to the intersection with VT Route 12/Main St.  Turn LEFT onto VT Route 12 North.  Travel North for 9 miles, then turn RIGHT onto Calais Rd.  Travel East on Calais Rd, which becomes Worcester Rd for 4 miles, then turn LEFT onto County Rd.  Travel North on County Rd for 6 miles, then turn RIGHT onto Dog Pond Rd, followed by a LEFT onto Fishing Rd.  The Access Area is at the end of Fishing Rd.",-72.44707992,44.44355778,83,70,150
-73.2091,44.706,168,Lake Champlain,Milton,Chittenden,F&W,F&W,Boating/Fishing,Medium,Concrete,No,No,Unprotected,Large,All Year,Moderate,No,Yes,Yes,Yes,No,Van Everest,No,No,No,No,No,No,Yes,No,No,No,No,Yes,No,No,Yes,Yes,Yes,Yes,Yes,Yes,Yes,Yes,Yes,Yes,No,No,"Take Interstate 89 to Exit 17 in Colchester.  Off the Exit, follow US Route 7 North towards Milton.  Travel North for  6.2 miles to Lake Rd.  Turn LEFT on Lake Rd and travel for 7.5 miles until Lake Rd is parrallel to Lake Champlain on the LEFT.  Turn LEFT onto Fishing Access Rd, and continue to the Access Area.",-73.2091351,44.70596109,172800,400,151
-73.3412,44.7196,169,Lake Champlain,Grand Isle,Grand Isle,F&W,F&W,Boating/Fishing,Medium,Concrete,No,Yes,Unprotected,Small,All Year,Light,No,Yes,Yes,Yes,No,Vantines,No,No,No,No,No,No,No,No,No,No,No,No,No,Yes,Yes,No,Yes,No,Yes,No,Yes,Yes,No,Yes,No,No,Take Interstate 89 to Exit 17 in Colchester.  Off the Exit follow US Route 2 West towards the Lake Champlain Islands.  Travel for 14.5 miles to Hyde Rd in Grand Isle.  Turn LEFT onto Hyde Rd and travel for 2 miles to Adams School Rd.  Turn LEFT onto Adams School Rd and travel South for 1/4 mile to Quaker Rd.  Turn RIGHT onto Quaker Rd and travel West for 3/4 of a mile to West Shore Rd.  Turn RIGHT onto West Shore Rd and travel North for 1/2 mile to the Access Area on the LEFT.,-73.34124506,44.7195985,172800,400,152
-72.5002,42.7438,170,Vernon Hatchery Pond,Vernon,Windham,F&W,F&W,Boating/Fishing,Carry-on,None,No,Yes,Protected,Small,Trout Season Only,Light,No,No,No,No,No,Vernon Hatchery Pond,No,No,No,No,No,No,No,No,No,No,Yes,No,No,No,No,No,No,No,No,No,No,No,No,No,No,No,Take Interstate 91 to Exit 1 in Brattleboro.  Off the Exit follow US Route 5 South for 3.4 miles to Tyler Hill Rd in Guilford.  Turn LEFT onto Tyler Hill Rd and travel East for 2 miles to VT Route 142.  Turn RIGHT onto VT Route 142 South and travel for 2.5 miles to Newton Rd.  Turn RIGHT onto Newton Rd and travel 1 mile to the Access Area on the LEFT.,-72.500175,42.743842,10,,153
-73.1414,43.0976,171,Batten Kill,Arlington,Bennington,Lease,F&W,Boating/Fishing,Carry-on,None,No,Yes,Protected,Small,Trout Season Only,Light,No,No,No,No,No,Wagon Wheel,No,No,No,No,No,No,No,No,No,No,Yes,Yes,No,No,No,No,No,No,No,No,No,No,No,No,No,No,"Take US Route 7 to Arlington, then turn onto VT Route 313 West.  Travel West for 2 miles, then turn RIGHT onto VT Route 7A.  Travel North on VT Route 7A for 3 miles, and the Access Area will be on the LEFT, at the end of Fishing Access Rd.",-73.1413547,43.09760501,0,0,154
-71.6357,45.0107,172,Wallace Pond,Canaan,Essex,F&W,F&W,Boating/Fishing,Small,Concrete,No,Yes,Protected,Small,All Year,Light,No,No,Yes,No,No,Wallace Pond,No,No,No,No,No,No,No,No,No,No,No,Yes,No,No,No,Yes,Yes,No,No,Yes,No,Yes,Yes,Yes,No,No,"Take Interstate 91 to Exit 28 in Derby.  Take US Route 5 North for  1 mile, then turn RIGHT onto VT Route 105 East.  Travel East on VT Route 105 for 1/2 mile, then turn LEFT onto VT Route 111 East.  Travel East on VT Route 111 for 13.5 miles, then turn LEFT onto VT Route 114 North.  Travel North on VT Route 114 for 22 miles, and the Access Area will be on the LEFT at the end of Lake Access Rd.",-71.6357371,45.01065592,532,62,155
-72.7244,44.2904,173,Mad River,Moretown,Washington,F&W,F&W,Fishing,N/A,None,No,Yes,,Large,Spring,Moderate,No,No,No,No,No,Ward,No,No,No,No,No,No,No,No,No,No,No,Yes,Yes,No,No,No,No,No,No,No,No,No,No,No,No,No,"Take Interstate 89 to Exit 9 in Middlesex.  Off the Exit follow US Route 2 East for 1/2 mile, into Middlesex, then turn RIGHT onto Church St.   Continue on Church St for approximately 1/4 mile to VT Route 100B.   Turn RIGHT onto VT Route 100B South.  Travel South for 2.5 miles and the Access Area will be on the LEFT.",-72.72440393,44.29037989,0,0,156
-73.1568,43.0766,174,Batten Kill,Arlington,Bennington,Lease,F&W,Boating/Fishing,Carry-on,None,No,Yes,Protected,Small,Trout Season Only,Light,No,No,No,No,No,Waterworks Bridge,No,No,No,No,No,No,No,No,No,No,Yes,Yes,No,No,No,No,No,No,No,No,No,No,No,No,No,No,"Take US Route 7 to Arlington, then take Exit 3 onto VT Route 313 West.  Travel West for 2 miles to VT Route 7A.  Turn RIGHT onto VT Route 7A North.  Travel North for 2 miles, and the Access Area will be on the LEFT.",-73.15676072,43.0765683,0,,157
-72.6143,42.7379,175,Weather Head Hollow Pond,Guilford,Windham,F&W,F&W,Boating/Fishing,Small,Concrete Plank,No,Yes,South,Small,Trout Season Only,Light,No,No,No,No,No,Weatherhead Hollow Pond,No,No,No,No,No,No,No,No,No,No,No,No,No,No,No,No,Yes,No,No,No,Yes,No,No,Yes,No,No,Take Interstate 91 to Exit 1 in Brattelboro.  Off the Exit follow US Route 5 South for 1.2 miles to Guilford Center Rd.  Turn RIGHT onto Guilford Center Rd and travel for 2 miles to Weatherhead Hollow Rd.  Turn LEFT onto Weatherhead Hollow Rd and travel South for 4 miles to the Access Area at the South end of the pond.,-72.61432446,42.73793808,33,10,158
-72.3428,44.4142,176,West Hill Pond,Cabot,Washington,F&W,F&W,Boating/Fishing,Carry-on,None,No,No,,N/A,Spring-Summer,Light,No,No,No,No,No,West Hill Pond,No,No,No,No,No,No,No,No,No,No,No,No,No,No,No,No,Yes,No,No,Yes,Yes,No,Yes,No,No,No,Take Interstate 89 to Exit 8 for Montpelier.  Off the Exit follow US Route 2 East for 18 miles to VT Route 215 in Marshfield.  Turn LEFT onto VT Route 215 North and travel for 3.2 miles to Hill Pond Rd.  Turn LEFT onto Hill Pond Rd and travel for 1.7 miles to Cabot Rd.  Turn LEFT onto Cabot Rd and the Access Area will be on the RIGHT.,-72.342821,44.41418,46,13,159
-73.2115,44.9707,178,Lake Champlain,Swanton,Franklin,F&W,F&W,Boating/Fishing,Large,Concrete,No,Yes,"North, West",Medium,All Year,Heavy,Yes,Yes,Yes,Yes,No,Larry Greene,Yes,Yes,Yes,No,No,No,Yes,No,Yes,No,No,No,No,No,No,No,Yes,Yes,Yes,Yes,Yes,Yes,Yes,Yes,Yes,No,Take Interstate 89 to Exit 21 in Swanton.  Off the Exit take VT Route 78 West for 7 miles and the Access Area will be on the RIGHT.,-73.21146854,44.97070599,172800,400,160
-72.2339,44.9539,179,Lake Memphremagog,Newport Town,Orleans,F&W,F&W,Boating/Fishing,Medium,Concrete,No,Yes,"North, East",Large,All Year,Moderate,Yes,Yes,Yes,Yes,No,Whipple Point,No,Yes,No,No,No,No,No,No,No,No,No,Yes,Yes,Yes,Yes,Yes,Yes,Yes,Yes,Yes,Yes,Yes,Yes,Yes,No,Yes,Take Interstate 91 to Exit 28 in Derby Center.  Off the Exit follow US Route 5 South for 5.4 miles to Logan Drive in Newport.  Turn RIGHT onto Logan Dr and continue for 1/2 mile to South Lake Rd.  Turn LEFT onto South Lake Rd and travel North for 3 miles to the Access Area on the RIGHT.,-72.23394731,44.95394176,6317,351,161
-73.3874,43.8192,180,Lake Champlain,Orwell,Addison,F&W,F&W,Boating/Fishing,Carry-on,None,No,No,,Small,Spring-Summer,,No,No,No,No,No,Mt Independence,No,No,No,No,No,No,No,No,No,No,No,No,No,No,No,No,No,No,No,No,No,No,No,No,No,No,Take Interstate 91 to Exit 6 in Rockingham.  Off the exit take VT Route 103 North for 10 miles to the Access Area on the LEFT.,-73.387376,43.81921,0,0,162
-73.2747,44.5363,182,Lake Champlain,Colchester,Chittenden,F&W,F&W,Boating/Fishing,Large,Concrete,Yes,Yes,Protected,Large,Spring-Summer,Moderate,Yes,No,Yes,No,No,Colchester Point,No,Yes,No,No,No,No,Yes,No,Yes,No,No,Yes,Yes,Yes,Yes,No,Yes,Yes,Yes,Yes,Yes,Yes,Yes,Yes,No,No,"Take Interstate 89 to Exit 16. Head North on US Route 7 toward Colchester for 1.7 miles.  At the traffic light turn LEFT onto Blakely Road and proceed for 1.7 miles to Mallets Bay Park.  Turn LEFT onto VT Route 127 and travel for 1 mile.  Veer RIGHT onto West Lakeshore Drive, and continue for another 2.2 miles as the road becomes Holy Cross Rd, then Colchester Point Rd.  Continue 0.6 miles to the end of Colchester Point Rd to reach the Access Area",-73.27474429,44.53628714,172800,400,163
-73.0998,44.1819,183,Bristol Pond,Bristol,Addison,F&W,F&W,Boating/Fishing,Medium,Concrete,No,Yes,Protected,Small,Spring,Light,No,Yes,No,No,No,Bristol Pond,No,No,No,No,No,No,No,No,No,No,No,No,No,No,No,No,Yes,No,Yes,No,Yes,No,Yes,Yes,Yes,No,Take US Route 17 to Bristol and turn north on to North Street.  North St. turns into Monkton Rd.  Continue from Rt. 17 for approximately 4.5 miles.  Turn right (east) onto the Access Area drive.,-73.09983,44.181918,248,9,164
-72.4271,44.5665,184,Wolcott Pond,Wolcott,Lamoille,F&W,F&W,Boating/Fishing,Small,Concrete Plank,No,Yes,Protected,Small,All Year,Light,No,No,No,No,No,Wolcott Pond,No,No,No,No,No,No,No,No,No,No,No,No,No,No,No,No,Yes,No,No,No,No,Yes,Yes,Yes,No,No,Take Interstate 89 to Exit 10 in Waterbury.  Off the Exit follow VT Route 100 North for 19.5 miles to VT Route 15 in Morrisville.  Turn RIGHT onto VT Route 15 East and travel for 8.2 miles to East Hill Rd in Wolcott.  Turn LEFT onto East Hill Rd and travel for approximately 5 miles to Wolcott Pond Rd.  Turn RIGHT onto Wolcott Pond Rd and continue to the end to reach the Access Area.,-72.427099,44.566514,68,23,165
-72.7621,43.5723,185,Woodward Reservoir,Plymouth,Windsor,F&W,F&W,Boating/Fishing,Small,Concrete Plank,Yes,Yes,Protected,Large,All Year,Light,No,Yes,Yes,No,No,Woodward Reservoir,No,No,No,No,No,No,No,No,No,No,No,Yes,Yes,No,No,Yes,Yes,No,Yes,Yes,Yes,Yes,Yes,Yes,No,No,"Take Interstate 89 to Exit 1, then follow US Route 4 West for 24.5 miles to VT Route 100 in West Bridgewater.  Turn LEFT onto VT Route 100 South and travel for 1.5 miles to the Access Area on the LEFT, at the northern tip of the reservoir.",-72.76213204,43.57225765,106,32,166
-72.4139,44.4074,186,Sabin Pond,Woodbury,Washington,F&W,F&W,Boating/Fishing,Medium,Concrete,No,Yes,Protected,Medium,All Year,Moderate,No,Yes,No,No,No,Sabin Pond,No,No,No,No,No,No,No,No,No,No,No,Yes,Yes,No,No,Yes,Yes,No,No,Yes,Yes,Yes,Yes,Yes,No,No,"Take Interstate 89 to Exit 8 in Montpelier.  Off the Exit follow US Route 2 East for 10 miles to East Montpelier, then turn LEFT onto VT Route 14 North.  Travel North for 10 miles to East Calais.  After East Calais continue travelling North on VT Route 14 for another 1.5 miles to the Access Area on the LEFT, at the North end of the pond.",-72.41390216,44.40741334,142,58,167
-72.1226,43.9966,187,Waits River,Bradford,Orange,Municipality,F&W,Boating/Fishing,Medium,Concrete,No,Yes,Protected,Small,Spring-Summer,Light,Yes,No,No,No,No,Bugbee Landing,No,No,No,No,No,No,No,No,No,No,No,Yes,Yes,No,No,No,Yes,Yes,Yes,Yes,Yes,Yes,Yes,Yes,Yes,No,Take Interstate 91 to exit 16 in Bradford.  Travel south on VT Route 25 (Waits River Road) for 0.5 miles to Lower Plain Rd/US Route 5 S.  Travel south on US Route 5 for 1.8 miles to Mallary Rd.  Turn LEFT onto Mallary Rd and proceed 0.7 miles to Bugbee Lane which leads to the Access Area.,-72.12258,43.996598,0,0,168
-72.7078,43.4904,188,Amherst Lake,Plymouth,Windsor,F&W,F&W,Boating/Fishing,Medium,Concrete Plank,No,Yes,Protected,Small,Spring-Summer,Moderate,No,No,Yes,No,No,Amherst Lake,No,No,No,No,No,No,No,No,No,No,No,No,Yes,Yes,No,No,Yes,No,No,Yes,No,Yes,Yes,Yes,No,No,From Interstate 89 take Exit 1 onto US Route 4 West and continue for approximately 19 miles to Bridgewater Corners.  At Bridgewater Corners turn LEFT onto VT Route 100A South and travel 3.5 miles to VT Route 100 in Plymouth.  Turn LEFT on VT Route 100 South and travel 4 miles to Amherst Lake.  Continue to the south end of the lake and turn LEFT onto Amherst Rd.  Follow Amherst Rd to the Access Area at the end.,-72.70782141,43.49044404,76,90,169
-72.3966,44.4671,189,Buck Lake,Woodbury,Washington,F&W,F&W,Boating/Fishing,Small,Gravel,No,No,South,Small,Spring,Moderate,No,No,No,No,No,Buck Lake,No,No,No,No,No,No,No,No,No,No,Yes,No,No,No,No,No,Yes,No,No,No,No,Yes,Yes,Yes,No,No,"Take Interstate 89 to Exit 8 and head East on US Route 2 for approximately 8 miles to VT Route 14 in East Montpelier.  Proceed North on VT Route 14 for 8.3 miles to Buck Lake Rd.  Turn RIGHT onto Buck Lake Rd and the Access Area is 1.3 miles ahead on the RIGHT, while the Green Mountain Camp reception building is 1 mile ahead on the right.",-72.39663256,44.46714842,39,33,170
-72.5274,42.9575,190,Connecticut River,Putney,Windham,F&W,F&W,Boating/Fishing,Small,Concrete Plank,No,Yes,Protected,Small,"Spring, Summer, Fall",Moderate,No,No,No,No,No,Dummerston,No,No,No,No,No,No,No,No,No,No,No,No,No,No,No,No,Yes,Yes,Yes,Yes,Yes,Yes,Yes,Yes,No,No,Take Interstate 91 to Exit 4 in Putney.  Off the Exit take Putney Landing Rd to the Access Area at the very end.,-72.52736,42.957458,0,0,171
-73.2686,43.8714,191,Richville Pond,Shoreham,Addison,F&W,F&W,Boating/Fishing,Small,Gravel,No,Yes,Protected,Small,Spring-Summer,Light,No,Yes,No,No,No,Richville,No,No,No,No,No,No,No,No,No,No,No,No,No,No,No,No,Yes,No,Yes,No,Yes,No,Yes,Yes,Yes,No,"Take US Route 7 to Middlebury, then turn onto VT Route 30 South.  Travel South on VT Route 30 for 10 miles, then turn RIGHT onto Shoreham-Whiting Rd.  Drive West on Shoreham-Whiting Rd for 1.5 miles, through East Shoreham, and turn LEFT onto Shoreham Depot Rd.  Travel South on Shoreham Depot Rd for 1/2 mile.  The Access Area is on the LEFT,  just before the bridge that crosses Richville Pond",-73.268591,43.87135,124,8,172
-73.2565,44.5256,192,Winooski River,Colchester,Chittenden,F&W,F&W,Boating/Fishing,Carry-on,None,Yes,No,Protected,Medium,Spring-Summer,Moderate,No,No,No,No,No,Heineberg Bridge,No,Yes,No,No,No,No,Yes,No,Yes,No,No,Yes,Yes,No,Yes,No,Yes,Yes,Yes,Yes,Yes,Yes,Yes,Yes,No,No,"Take Interstate 89 to Exit 16 and follow US Route 7 North for 2 miles to Colchester, then turn LEFT onto VT Route 127, also called Bay Rd.  Travel on VT Route 127 for 4 miles to Malletts Bay, then turn LEFT onto Prime Rd (a.k.a. Route 127 continuation/Burlington Beltline).  Travel another 1.75 miles and the access drive will be on the RIGHT just before VT Route 127 crosses the Winooski River.",-73.25652425,44.52555858,0,0,173
-73.2184,44.6062,194,Lamoille River,Milton,Chittenden,F&W,F&W,Boating/Fishing,Large,Concrete,Yes,Yes,Protected,Large,Spring-Summer,Moderate,No,No,Yes,No,No,Lamoille River,Yes,No,Yes,No,No,No,Yes,No,Yes,No,No,Yes,No,No,Yes,No,Yes,Yes,Yes,Yes,Yes,Yes,Yes,Yes,Yes,No,Take Interstate 89 to Exit 17 in Colchester.  Off the Exit take US Route 2 West towards the Lake Champlain Islands.  Drive  2.4 miles and turn LEFT onto Bear Cub Rd.  Continue to the stop sign and turn LEFT onto Gravelle Rd followed by the first RIGHT onto the Access Rd.  Continue on the Access Rd to the Access Area at the end.,-73.21839424,44.60616779,0,0,174
-73.4215,44.0345,195,Lake Champlain,Addison,Addison,VTHP,F&W,Boating/Fishing,Large,Concrete,No,Yes,Northwest,Medium,All Year,Heavy,Yes,Yes,Yes,Yes,No,Chimney Point,Yes,Yes,Yes,Yes,Yes,No,Yes,No,Yes,No,No,No,Yes,Yes,Yes,Yes,Yes,Yes,Yes,Yes,Yes,Yes,Yes,Yes,Yes,Yes,"Take US Route 7 to Vergennes.  In Vergennes turn onto VT Route 22A South and continue for 6 miles to Addison.  In Addison turn left onto VT Route 17 and head West.  Proceed West on VT Route 17 for 8.1 miles, past the entrance to DAR State Park to Chimney Point Historic Park.  The Acces Area is located at the intersection of Route 17 and route 125, at the Chimney Point Historic Site  just before the bridge that crosses Lake Champlain.",-73.42152867,44.03448495,172800,400,175
-72.4278,44.5326,196,Lamoille River,Wolcott,Lamoille,F&W,F&W,Fishing,N/A,None,Yes,Yes,,Medium,Spring-Summer,Light,No,No,No,No,No,Fisher Bridge,No,No,No,No,No,No,No,No,No,No,No,Yes,Yes,No,No,No,No,No,No,No,No,No,No,No,No,No,Take Interstate 89 to Exit 10 for Waterbury/Stowe and turn onto VT Route 100 North towards Stowe.  Travel for 18.5 miles to Morrisville.  At Morrisville Center (a.k.a. Morrisville 4 Corners) continue straight on Main St for 0.25 miles then bear LEFT onto VT Route 15A.  Follow VT Route 15A for 2 miles to VT Route 15.  Turn RIGHT onto VT Route 15 East towards Wolcott.  Travel for 8.1 miles and the Access Area will be on the RIGHT adjacent to the railroad bridge which crosses the Lamoille River.,-72.427762,44.532599,0,0,176
-72.1939,44.8119,197,Willoughby River,Barton,Orleans,F&W,F&W,Fishing,N/A,None,No,Yes,,Small,Spring,Moderate,No,No,Yes,No,No,Willoughby Falls,No,No,No,No,No,No,No,No,No,No,No,No,Yes,No,No,No,No,No,No,No,No,No,No,No,No,No,Take Interstate 91 to Exit 26 in Orleans.  Off the Exit take VT Route 58 East for 1.5 miles to Brownington Center Rd.  Turn RIGHT onto Brownington Center Rd and travel for 1/4 mile to the Access Area of the RIGHT.,-72.1939,44.811854,0,0,177
-72.3761,44.6664,198,Little Hosmer Pond,Craftsbury,Orleans,DEC (Dam),F&W,Boating/Fishing,Small,Concrete Plank,No,Yes,North,Small,Spring,Light,No,No,No,No,No,Little Hosmer,No,No,No,No,No,No,No,No,No,No,No,No,No,No,No,No,Yes,No,No,Yes,Yes,No,Yes,Yes,No,No,From Interstate 91 take Exit 26 for Orleans.  Off of the Exit follow US Route 5 North for1/10 of a mile then turn LEFT onto VT Route 58 West.  Travel West on Rte 58 for 3.5 miles to VT Route 14 in the town of Irasburg.  Turn LEFT onto VT Route 14 South and travel for 9.3 miles to Wylie Hill Rd.  Turn LEFT on Wylie Hill Rd and drive for 2.2 miles to Little Hosmer Dr.  Turn LEFT onto Little Hosmer Dr and continue to the Access Area.,-72.37608928,44.66638328,183,9,178
-73.3754,43.8006,200,Lake Champlain,Orwell,Addison,State MOA,F&W,Boating/Fishing,Medium,Concrete,No,Yes,North,Small,All Year,Light,Yes,No,No,No,Yes,Chipmans Point,Yes,Yes,Yes,Yes,Yes,No,Yes,No,Yes,No,No,No,No,No,No,No,Yes,Yes,Yes,Yes,Yes,Yes,Yes,Yes,Yes,No,"Take US Route 7 to Brandon, then head West on VT Route 73.  Continue West on VT 73 for 5.9 miles, then turn LEFT and head South on VT Route 30/ VT Route 73.  Head South for 2.2 miles and then turn RIGHT and head West onto VT Route 73.  Continue West on VT Route 73 for 5.6 miles and veer LEFT onto Mount Independence Rd.  Follow Mount Independence Rd for 3 miles and veer LEFT onto Chipmans Point Rd.  Continue on Chipman's Point Rd to the Access Area at the end.",-73.375392,43.800555,172800,400,179
-72.7994,43.6753,203,Kent Pond,Killington,Rutland,F&W,F&W,Fishing,N/A,None,Yes,No,,Medium,All Year,Heavy,No,No,No,No,No,Kent Pond Shorefishing Platform,No,No,No,No,No,No,No,No,No,No,Yes,No,Yes,No,No,No,Yes,No,No,No,Yes,No,No,Yes,No,No,,-72.799417,43.675272,71,15,180
-73.3476,44.6891,206,Lake Champlain,Grand Isle,Grand Isle,F&W,F&W,Fishing,N/A,None,No,Yes,Protected,Small,All Year,Light,No,No,No,No,No,Ed Weed,Yes,Yes,No,No,Yes,No,Yes,No,No,No,No,No,No,No,No,No,Yes,Yes,Yes,Yes,Yes,Yes,Yes,Yes,Yes,No,,-73.347635,44.689077,172800,400,181
-73.0167,43.2106,214,Bullhead Pond,Manchester,Bennington,F&W,F&W,Boating/Fishing,Carry-on,None,No,No,Protected,Small,"Spring, Summer, Fall",Light,No,No,No,No,No,Bullhead Pond,No,No,No,No,No,No,No,No,No,No,Yes,No,No,No,No,No,Yes,No,No,No,Yes,No,Yes,No,No,No,,-73.016736,43.21064,5,15,182
-73.2669,44.6374,219,Lake Champlain,South Hero,Grand Isle,F&W,F&W,Boating/Fishing,Large,Concrete,No,No,Protected,Large,All Year,Moderate,Yes,Yes,Yes,Yes,No,John Guilmette,No,No,No,No,No,No,No,No,No,No,No,No,No,No,No,No,No,No,No,No,No,No,No,No,No,No,,-73.266852,44.637406,172800,400,183
-73.0342,44.1233,242,New Haven River,Bristol,Addison,Town,Municipality,Fishing,N/A,None,Yes,No,,Medium,Spring-Summer,Light,No,No,No,No,No,New Haven Fishing Platform,No,No,No,No,No,No,No,No,No,No,Yes,No,Yes,No,No,No,No,No,No,No,No,No,No,No,No,No,,-73.03422,44.12328,0,0,184
-72.3622,44.6836,250,Great Hosmer Pond,Craftsbury,Lamoille,F&W,F&W,Boating/Fishing,Small,Gravel,No,Yes,Protected,Small,All Year,Light,No,No,No,No,No,Gordon (PeeWee) Wing,No,No,No,No,No,No,No,No,No,No,No,No,No,No,No,No,Yes,No,No,Yes,Yes,No,Yes,Yes,No,No,,-72.36219,44.68358,,,185
-73.3958,43.5698,267,Poultney River,West Haven,Rutland,F&W,F&W,Boating/Fishing,Small,Gravel,No,No,Protected,Small,Spring-Fall,Light,No,No,No,No,No,Ward Marsh,No,No,No,No,No,No,No,No,No,No,No,No,No,No,No,No,No,No,No,No,No,No,No,No,No,No,,-73.39575,43.56984,0,,186
-72.8713,44.9902,271,Lake Carmi,Franklin,Franklin,F&W,F&W,Boating/Fishing,Small,Concrete,No,No,Southern,Small,Spring-Fall,Seasonal,Yes,No,No,No,No,Lake Carmi,No,No,No,Yes,No,No,No,No,No,No,No,No,No,No,No,No,Yes,Yes,Yes,No,Yes,Yes,Yes,Yes,Yes,No,,-72.87126,44.99016,1402,33,187
-73.0814,44.2773,272,Lewis Creek,Monkton,Addison,F&W,F&W,Boating/Fishing,Carry-on,None,No,No,Protected,Small,Spring,Light,No,No,No,No,No,Lewis Creek at Tyler Bridge,No,No,No,No,No,No,No,No,No,No,No,No,No,No,No,No,No,No,No,No,No,No,No,No,No,No,,-73.0814,44.27727,,,188
-71.596,44.7746,274,Connecticut River,Lemington,Essex,FPR easement,No Management,Boating/Fishing,Small,Timber Crib,No,No,Protected,Small,Spring-Fall,Light,No,No,No,No,No,Francis John Smith,No,No,No,No,No,No,No,No,No,No,No,No,No,No,No,No,No,No,No,No,No,No,No,No,No,No,,-71.59596,44.77456,,,189
-72.4789,44.5513,275,Lamoille River,Wolcott,Lamoille,F&W,F&W,Boating/Fishing,Carry-on,None,No,No,Protected,Small,Spring-Fall,Light,No,No,No,No,No,Upper Lamoille River,No,No,No,No,No,No,No,No,No,No,No,No,No,No,No,No,No,No,No,No,No,No,No,No,No,No,,-72.47893,44.55125,,,190
-72.6786,44.6218,276,Lamoille River,Johnson,Lamoille,F&W,F&W,Boating/Fishing,Carry-on,None,No,No,Protected,Small,Spring-Fall,Light,No,No,No,No,No,Dog Head Falls,No,No,No,No,No,No,No,No,No,No,No,No,No,No,No,No,No,No,No,No,No,No,No,No,No,No,,-72.6786,44.62181,,,191
